{
"type": "FeatureCollection",
"name": "districts",
"crs": { "type": "name", "properties": { "name": "urn:ogc:def:crs:OGC:1.3:CRS84" } },
"features": [
{ "type": "Feature", "properties": { "district_id": "D-000", "population_density": 255.3, "current_business_count": 4 }, "geometry": { "type": "Polygon", "coordinates": [ [ [ -6.666666666666666, 35.0 ], [ -6.666666666666666, 38.083333333333336 ], [ -10.0, 38.083333333333336 ], [ -10.0, 35.0 ], [ -6.666666666666666, 35.0 ] ] ] } },
{ "type": "Feature", "properties": { "district_id": "D-001", "population_density": 257.6, "current_business_count": 8 }, "geometry": { "type": "Polygon", "coordinates": [ [ [ -3.333333333333333, 35.0 ], [ -3.333333333333333, 38.083333333333336 ], [ -6.666666666666666, 38.083333333333336 ], [ -6.666666666666666, 35.0 ], [ -3.333333333333333, 35.0 ] ] ] } },
{ "type": "Feature", "properties": { "district_id": "D-002", "population_density": 192.8, "current_business_count": 3 }, "geometry": { "type": "Polygon", "coordinates": [ [ [ 0.0, 35.0 ], [ 0.0, 38.083333333333336 ], [ -3.333333333333333, 38.083333333333336 ], [ -3.333333333333333, 35.0 ], [ 0.0, 35.0 ] ] ] } },
{ "type": "Feature", "properties": { "district_id": "D-003", "population_density": 1041.4, "current_business_count": 17 }, "geometry": { "type": "Polygon", "coordinates": [ [ [ 3.333333333333334, 35.0 ], [ 3.333333333333334, 38.083333333333336 ], [ 0.0, 38.083333333333336 ], [ 0.0, 35.0 ], [ 3.333333333333334, 35.0 ] ] ] } },
{ "type": "Feature", "properties": { "district_id": "D-004", "population_density": 555.9, "current_business_count": 19 }, "geometry": { "type": "Polygon", "coordinates": [ [ [ 6.666666666666668, 35.0 ], [ 6.666666666666668, 38.083333333333336 ], [ 3.333333333333334, 38.083333333333336 ], [ 3.333333333333334, 35.0 ], [ 6.666666666666668, 35.0 ] ] ] } },
{ "type": "Feature", "properties": { "district_id": "D-005", "population_density": 50.0, "current_business_count": 1 }, "geometry": { "type": "Polygon", "coordinates": [ [ [ 10.0, 35.0 ], [ 10.0, 38.083333333333336 ], [ 6.666666666666668, 38.083333333333336 ], [ 6.666666666666668, 35.0 ], [ 10.0, 35.0 ] ] ] } },
{ "type": "Feature", "properties": { "district_id": "D-006", "population_density": 511.4, "current_business_count": 14 }, "geometry": { "type": "Polygon", "coordinates": [ [ [ 13.333333333333336, 35.0 ], [ 13.333333333333336, 38.083333333333336 ], [ 10.0, 38.083333333333336 ], [ 10.0, 35.0 ], [ 13.333333333333336, 35.0 ] ] ] } },
{ "type": "Feature", "properties": { "district_id": "D-007", "population_density": 190.4, "current_business_count": 4 }, "geometry": { "type": "Polygon", "coordinates": [ [ [ 16.666666666666668, 35.0 ], [ 16.666666666666668, 38.083333333333336 ], [ 13.333333333333336, 38.083333333333336 ], [ 13.333333333333336, 35.0 ], [ 16.666666666666668, 35.0 ] ] ] } },
{ "type": "Feature", "properties": { "district_id": "D-008", "population_density": 904.4, "current_business_count": 31 }, "geometry": { "type": "Polygon", "coordinates": [ [ [ 20.0, 35.0 ], [ 20.0, 38.083333333333336 ], [ 16.666666666666668, 38.083333333333336 ], [ 16.666666666666668, 35.0 ], [ 20.0, 35.0 ] ] ] } },
{ "type": "Feature", "properties": { "district_id": "D-009", "population_density": 1948.4, "current_business_count": 46 }, "geometry": { "type": "Polygon", "coordinates": [ [ [ 23.333333333333336, 35.0 ], [ 23.333333333333336, 38.083333333333336 ], [ 20.0, 38.083333333333336 ], [ 20.0, 35.0 ], [ 23.333333333333336, 35.0 ] ] ] } },
{ "type": "Feature", "properties": { "district_id": "D-010", "population_density": 3029.5, "current_business_count": 46 }, "geometry": { "type": "Polygon", "coordinates": [ [ [ 26.666666666666671, 35.0 ], [ 26.666666666666671, 38.083333333333336 ], [ 23.333333333333336, 38.083333333333336 ], [ 23.333333333333336, 35.0 ], [ 26.666666666666671, 35.0 ] ] ] } },
{ "type": "Feature", "properties": { "district_id": "D-011", "population_density": 259.0, "current_business_count": 9 }, "geometry": { "type": "Polygon", "coordinates": [ [ [ 30.0, 35.0 ], [ 30.0, 38.083333333333336 ], [ 26.666666666666671, 38.083333333333336 ], [ 26.666666666666671, 35.0 ], [ 30.0, 35.0 ] ] ] } },
{ "type": "Feature", "properties": { "district_id": "D-012", "population_density": 746.3, "current_business_count": 18 }, "geometry": { "type": "Polygon", "coordinates": [ [ [ -6.666666666666666, 38.083333333333336 ], [ -6.666666666666666, 41.166666666666664 ], [ -10.0, 41.166666666666664 ], [ -10.0, 38.083333333333336 ], [ -6.666666666666666, 38.083333333333336 ] ] ] } },
{ "type": "Feature", "properties": { "district_id": "D-013", "population_density": 652.6, "current_business_count": 15 }, "geometry": { "type": "Polygon", "coordinates": [ [ [ -3.333333333333333, 38.083333333333336 ], [ -3.333333333333333, 41.166666666666664 ], [ -6.666666666666666, 41.166666666666664 ], [ -6.666666666666666, 38.083333333333336 ], [ -3.333333333333333, 38.083333333333336 ] ] ] } },
{ "type": "Feature", "properties": { "district_id": "D-014", "population_density": 1289.7, "current_business_count": 23 }, "geometry": { "type": "Polygon", "coordinates": [ [ [ 0.0, 38.083333333333336 ], [ 0.0, 41.166666666666664 ], [ -3.333333333333333, 41.166666666666664 ], [ -3.333333333333333, 38.083333333333336 ], [ 0.0, 38.083333333333336 ] ] ] } },
{ "type": "Feature", "properties": { "district_id": "D-015", "population_density": 4815.0, "current_business_count": 89 }, "geometry": { "type": "Polygon", "coordinates": [ [ [ 3.333333333333334, 38.083333333333336 ], [ 3.333333333333334, 41.166666666666664 ], [ 0.0, 41.166666666666664 ], [ 0.0, 38.083333333333336 ], [ 3.333333333333334, 38.083333333333336 ] ] ] } },
{ "type": "Feature", "properties": { "district_id": "D-016", "population_density": 1275.5, "current_business_count": 32 }, "geometry": { "type": "Polygon", "coordinates": [ [ [ 6.666666666666668, 38.083333333333336 ], [ 6.666666666666668, 41.166666666666664 ], [ 3.333333333333334, 41.166666666666664 ], [ 3.333333333333334, 38.083333333333336 ], [ 6.666666666666668, 38.083333333333336 ] ] ] } },
{ "type": "Feature", "properties": { "district_id": "D-017", "population_density": 256.8, "current_business_count": 8 }, "geometry": { "type": "Polygon", "coordinates": [ [ [ 10.0, 38.083333333333336 ], [ 10.0, 41.166666666666664 ], [ 6.666666666666668, 41.166666666666664 ], [ 6.666666666666668, 38.083333333333336 ], [ 10.0, 38.083333333333336 ] ] ] } },
{ "type": "Feature", "properties": { "district_id": "D-018", "population_density": 50.0, "current_business_count": 1 }, "geometry": { "type": "Polygon", "coordinates": [ [ [ 13.333333333333336, 38.083333333333336 ], [ 13.333333333333336, 41.166666666666664 ], [ 10.0, 41.166666666666664 ], [ 10.0, 38.083333333333336 ], [ 13.333333333333336, 38.083333333333336 ] ] ] } },
{ "type": "Feature", "properties": { "district_id": "D-019", "population_density": 495.4, "current_business_count": 14 }, "geometry": { "type": "Polygon", "coordinates": [ [ [ 16.666666666666668, 38.083333333333336 ], [ 16.666666666666668, 41.166666666666664 ], [ 13.333333333333336, 41.166666666666664 ], [ 13.333333333333336, 38.083333333333336 ], [ 16.666666666666668, 38.083333333333336 ] ] ] } },
{ "type": "Feature", "properties": { "district_id": "D-020", "population_density": 409.8, "current_business_count": 10 }, "geometry": { "type": "Polygon", "coordinates": [ [ [ 20.0, 38.083333333333336 ], [ 20.0, 41.166666666666664 ], [ 16.666666666666668, 41.166666666666664 ], [ 16.666666666666668, 38.083333333333336 ], [ 20.0, 38.083333333333336 ] ] ] } },
{ "type": "Feature", "properties": { "district_id": "D-021", "population_density": 1413.1, "current_business_count": 40 }, "geometry": { "type": "Polygon", "coordinates": [ [ [ 23.333333333333336, 38.083333333333336 ], [ 23.333333333333336, 41.166666666666664 ], [ 20.0, 41.166666666666664 ], [ 20.0, 38.083333333333336 ], [ 23.333333333333336, 38.083333333333336 ] ] ] } },
{ "type": "Feature", "properties": { "district_id": "D-022", "population_density": 1313.4, "current_business_count": 44 }, "geometry": { "type": "Polygon", "coordinates": [ [ [ 26.666666666666671, 38.083333333333336 ], [ 26.666666666666671, 41.166666666666664 ], [ 23.333333333333336, 41.166666666666664 ], [ 23.333333333333336, 38.083333333333336 ], [ 26.666666666666671, 38.083333333333336 ] ] ] } },
{ "type": "Feature", "properties": { "district_id": "D-023", "population_density": 502.8, "current_business_count": 15 }, "geometry": { "type": "Polygon", "coordinates": [ [ [ 30.0, 38.083333333333336 ], [ 30.0, 41.166666666666664 ], [ 26.666666666666671, 41.166666666666664 ], [ 26.666666666666671, 38.083333333333336 ], [ 30.0, 38.083333333333336 ] ] ] } },
{ "type": "Feature", "properties": { "district_id": "D-024", "population_density": 319.9, "current_business_count": 11 }, "geometry": { "type": "Polygon", "coordinates": [ [ [ -6.666666666666666, 41.166666666666664 ], [ -6.666666666666666, 44.25 ], [ -10.0, 44.25 ], [ -10.0, 41.166666666666664 ], [ -6.666666666666666, 41.166666666666664 ] ] ] } },
{ "type": "Feature", "properties": { "district_id": "D-025", "population_density": 490.4, "current_business_count": 11 }, "geometry": { "type": "Polygon", "coordinates": [ [ [ -3.333333333333333, 41.166666666666664 ], [ -3.333333333333333, 44.25 ], [ -6.666666666666666, 44.25 ], [ -6.666666666666666, 41.166666666666664 ], [ -3.333333333333333, 41.166666666666664 ] ] ] } },
{ "type": "Feature", "properties": { "district_id": "D-026", "population_density": 692.7, "current_business_count": 24 }, "geometry": { "type": "Polygon", "coordinates": [ [ [ 0.0, 41.166666666666664 ], [ 0.0, 44.25 ], [ -3.333333333333333, 44.25 ], [ -3.333333333333333, 41.166666666666664 ], [ 0.0, 41.166666666666664 ] ] ] } },
{ "type": "Feature", "properties": { "district_id": "D-027", "population_density": 3948.1, "current_business_count": 86 }, "geometry": { "type": "Polygon", "coordinates": [ [ [ 3.333333333333334, 41.166666666666664 ], [ 3.333333333333334, 44.25 ], [ 0.0, 44.25 ], [ 0.0, 41.166666666666664 ], [ 3.333333333333334, 41.166666666666664 ] ] ] } },
{ "type": "Feature", "properties": { "district_id": "D-028", "population_density": 2002.3, "current_business_count": 51 }, "geometry": { "type": "Polygon", "coordinates": [ [ [ 6.666666666666668, 41.166666666666664 ], [ 6.666666666666668, 44.25 ], [ 3.333333333333334, 44.25 ], [ 3.333333333333334, 41.166666666666664 ], [ 6.666666666666668, 41.166666666666664 ] ] ] } },
{ "type": "Feature", "properties": { "district_id": "D-029", "population_density": 2100.9, "current_business_count": 48 }, "geometry": { "type": "Polygon", "coordinates": [ [ [ 10.0, 41.166666666666664 ], [ 10.0, 44.25 ], [ 6.666666666666668, 44.25 ], [ 6.666666666666668, 41.166666666666664 ], [ 10.0, 41.166666666666664 ] ] ] } },
{ "type": "Feature", "properties": { "district_id": "D-030", "population_density": 694.9, "current_business_count": 12 }, "geometry": { "type": "Polygon", "coordinates": [ [ [ 13.333333333333336, 41.166666666666664 ], [ 13.333333333333336, 44.25 ], [ 10.0, 44.25 ], [ 10.0, 41.166666666666664 ], [ 13.333333333333336, 41.166666666666664 ] ] ] } },
{ "type": "Feature", "properties": { "district_id": "D-031", "population_density": 50.0, "current_business_count": 1 }, "geometry": { "type": "Polygon", "coordinates": [ [ [ 16.666666666666668, 41.166666666666664 ], [ 16.666666666666668, 44.25 ], [ 13.333333333333336, 44.25 ], [ 13.333333333333336, 41.166666666666664 ], [ 16.666666666666668, 41.166666666666664 ] ] ] } },
{ "type": "Feature", "properties": { "district_id": "D-032", "population_density": 50.0, "current_business_count": 1 }, "geometry": { "type": "Polygon", "coordinates": [ [ [ 20.0, 41.166666666666664 ], [ 20.0, 44.25 ], [ 16.666666666666668, 44.25 ], [ 16.666666666666668, 41.166666666666664 ], [ 20.0, 41.166666666666664 ] ] ] } },
{ "type": "Feature", "properties": { "district_id": "D-033", "population_density": 537.4, "current_business_count": 13 }, "geometry": { "type": "Polygon", "coordinates": [ [ [ 23.333333333333336, 41.166666666666664 ], [ 23.333333333333336, 44.25 ], [ 20.0, 44.25 ], [ 20.0, 41.166666666666664 ], [ 23.333333333333336, 41.166666666666664 ] ] ] } },
{ "type": "Feature", "properties": { "district_id": "D-034", "population_density": 74.9, "current_business_count": 3 }, "geometry": { "type": "Polygon", "coordinates": [ [ [ 26.666666666666671, 41.166666666666664 ], [ 26.666666666666671, 44.25 ], [ 23.333333333333336, 44.25 ], [ 23.333333333333336, 41.166666666666664 ], [ 26.666666666666671, 41.166666666666664 ] ] ] } },
{ "type": "Feature", "properties": { "district_id": "D-035", "population_density": 276.5, "current_business_count": 9 }, "geometry": { "type": "Polygon", "coordinates": [ [ [ 30.0, 41.166666666666664 ], [ 30.0, 44.25 ], [ 26.666666666666671, 44.25 ], [ 26.666666666666671, 41.166666666666664 ], [ 30.0, 41.166666666666664 ] ] ] } },
{ "type": "Feature", "properties": { "district_id": "D-036", "population_density": 128.9, "current_business_count": 2 }, "geometry": { "type": "Polygon", "coordinates": [ [ [ -6.666666666666666, 44.25 ], [ -6.666666666666666, 47.333333333333336 ], [ -10.0, 47.333333333333336 ], [ -10.0, 44.25 ], [ -6.666666666666666, 44.25 ] ] ] } },
{ "type": "Feature", "properties": { "district_id": "D-037", "population_density": 50.0, "current_business_count": 1 }, "geometry": { "type": "Polygon", "coordinates": [ [ [ -3.333333333333333, 44.25 ], [ -3.333333333333333, 47.333333333333336 ], [ -6.666666666666666, 47.333333333333336 ], [ -6.666666666666666, 44.25 ], [ -3.333333333333333, 44.25 ] ] ] } },
{ "type": "Feature", "properties": { "district_id": "D-038", "population_density": 836.4, "current_business_count": 22 }, "geometry": { "type": "Polygon", "coordinates": [ [ [ 0.0, 44.25 ], [ 0.0, 47.333333333333336 ], [ -3.333333333333333, 47.333333333333336 ], [ -3.333333333333333, 44.25 ], [ 0.0, 44.25 ] ] ] } },
{ "type": "Feature", "properties": { "district_id": "D-039", "population_density": 2343.5, "current_business_count": 72 }, "geometry": { "type": "Polygon", "coordinates": [ [ [ 3.333333333333334, 44.25 ], [ 3.333333333333334, 47.333333333333336 ], [ 0.0, 47.333333333333336 ], [ 0.0, 44.25 ], [ 3.333333333333334, 44.25 ] ] ] } },
{ "type": "Feature", "properties": { "district_id": "D-040", "population_density": 1317.4, "current_business_count": 30 }, "geometry": { "type": "Polygon", "coordinates": [ [ [ 6.666666666666668, 44.25 ], [ 6.666666666666668, 47.333333333333336 ], [ 3.333333333333334, 47.333333333333336 ], [ 3.333333333333334, 44.25 ], [ 6.666666666666668, 44.25 ] ] ] } },
{ "type": "Feature", "properties": { "district_id": "D-041", "population_density": 4584.7, "current_business_count": 4 }, "geometry": { "type": "Polygon", "coordinates": [ [ [ 10.0, 44.25 ], [ 10.0, 47.333333333333336 ], [ 6.666666666666668, 47.333333333333336 ], [ 6.666666666666668, 44.25 ], [ 10.0, 44.25 ] ] ] } },
{ "type": "Feature", "properties": { "district_id": "D-042", "population_density": 2185.5, "current_business_count": 52 }, "geometry": { "type": "Polygon", "coordinates": [ [ [ 13.333333333333336, 44.25 ], [ 13.333333333333336, 47.333333333333336 ], [ 10.0, 47.333333333333336 ], [ 10.0, 44.25 ], [ 13.333333333333336, 44.25 ] ] ] } },
{ "type": "Feature", "properties": { "district_id": "D-043", "population_density": 158.2, "current_business_count": 4 }, "geometry": { "type": "Polygon", "coordinates": [ [ [ 16.666666666666668, 44.25 ], [ 16.666666666666668, 47.333333333333336 ], [ 13.333333333333336, 47.333333333333336 ], [ 13.333333333333336, 44.25 ], [ 16.666666666666668, 44.25 ] ] ] } },
{ "type": "Feature", "properties": { "district_id": "D-044", "population_density": 50.0, "current_business_count": 1 }, "geometry": { "type": "Polygon", "coordinates": [ [ [ 20.0, 44.25 ], [ 20.0, 47.333333333333336 ], [ 16.666666666666668, 47.333333333333336 ], [ 16.666666666666668, 44.25 ], [ 20.0, 44.25 ] ] ] } },
{ "type": "Feature", "properties": { "district_id": "D-045", "population_density": 370.4, "current_business_count": 9 }, "geometry": { "type": "Polygon", "coordinates": [ [ [ 23.333333333333336, 44.25 ], [ 23.333333333333336, 47.333333333333336 ], [ 20.0, 47.333333333333336 ], [ 20.0, 44.25 ], [ 23.333333333333336, 44.25 ] ] ] } },
{ "type": "Feature", "properties": { "district_id": "D-046", "population_density": 161.8, "current_business_count": 4 }, "geometry": { "type": "Polygon", "coordinates": [ [ [ 26.666666666666671, 44.25 ], [ 26.666666666666671, 47.333333333333336 ], [ 23.333333333333336, 47.333333333333336 ], [ 23.333333333333336, 44.25 ], [ 26.666666666666671, 44.25 ] ] ] } },
{ "type": "Feature", "properties": { "district_id": "D-047", "population_density": 50.0, "current_business_count": 2 }, "geometry": { "type": "Polygon", "coordinates": [ [ [ 30.0, 44.25 ], [ 30.0, 47.333333333333336 ], [ 26.666666666666671, 47.333333333333336 ], [ 26.666666666666671, 44.25 ], [ 30.0, 44.25 ] ] ] } },
{ "type": "Feature", "properties": { "district_id": "D-048", "population_density": 66.6, "current_business_count": 1 }, "geometry": { "type": "Polygon", "coordinates": [ [ [ -6.666666666666666, 47.333333333333336 ], [ -6.666666666666666, 50.416666666666671 ], [ -10.0, 50.416666666666671 ], [ -10.0, 47.333333333333336 ], [ -6.666666666666666, 47.333333333333336 ] ] ] } },
{ "type": "Feature", "properties": { "district_id": "D-049", "population_density": 563.2, "current_business_count": 17 }, "geometry": { "type": "Polygon", "coordinates": [ [ [ -3.333333333333333, 47.333333333333336 ], [ -3.333333333333333, 50.416666666666671 ], [ -6.666666666666666, 50.416666666666671 ], [ -6.666666666666666, 47.333333333333336 ], [ -3.333333333333333, 47.333333333333336 ] ] ] } },
{ "type": "Feature", "properties": { "district_id": "D-050", "population_density": 2950.1, "current_business_count": 72 }, "geometry": { "type": "Polygon", "coordinates": [ [ [ 0.0, 47.333333333333336 ], [ 0.0, 50.416666666666671 ], [ -3.333333333333333, 50.416666666666671 ], [ -3.333333333333333, 47.333333333333336 ], [ 0.0, 47.333333333333336 ] ] ] } },
{ "type": "Feature", "properties": { "district_id": "D-051", "population_density": 6729.3, "current_business_count": 2 }, "geometry": { "type": "Polygon", "coordinates": [ [ [ 3.333333333333334, 47.333333333333336 ], [ 3.333333333333334, 50.416666666666671 ], [ 0.0, 50.416666666666671 ], [ 0.0, 47.333333333333336 ], [ 3.333333333333334, 47.333333333333336 ] ] ] } },
{ "type": "Feature", "properties": { "district_id": "D-052", "population_density": 2711.1, "current_business_count": 90 }, "geometry": { "type": "Polygon", "coordinates": [ [ [ 6.666666666666668, 47.333333333333336 ], [ 6.666666666666668, 50.416666666666671 ], [ 3.333333333333334, 50.416666666666671 ], [ 3.333333333333334, 47.333333333333336 ], [ 6.666666666666668, 47.333333333333336 ] ] ] } },
{ "type": "Feature", "properties": { "district_id": "D-053", "population_density": 1861.5, "current_business_count": 50 }, "geometry": { "type": "Polygon", "coordinates": [ [ [ 10.0, 47.333333333333336 ], [ 10.0, 50.416666666666671 ], [ 6.666666666666668, 50.416666666666671 ], [ 6.666666666666668, 47.333333333333336 ], [ 10.0, 47.333333333333336 ] ] ] } },
{ "type": "Feature", "properties": { "district_id": "D-054", "population_density": 1331.5, "current_business_count": 21 }, "geometry": { "type": "Polygon", "coordinates": [ [ [ 13.333333333333336, 47.333333333333336 ], [ 13.333333333333336, 50.416666666666671 ], [ 10.0, 50.416666666666671 ], [ 10.0, 47.333333333333336 ], [ 13.333333333333336, 47.333333333333336 ] ] ] } },
{ "type": "Feature", "properties": { "district_id": "D-055", "population_density": 1086.0, "current_business_count": 36 }, "geometry": { "type": "Polygon", "coordinates": [ [ [ 16.666666666666668, 47.333333333333336 ], [ 16.666666666666668, 50.416666666666671 ], [ 13.333333333333336, 50.416666666666671 ], [ 13.333333333333336, 47.333333333333336 ], [ 16.666666666666668, 47.333333333333336 ] ] ] } },
{ "type": "Feature", "properties": { "district_id": "D-056", "population_density": 576.4, "current_business_count": 20 }, "geometry": { "type": "Polygon", "coordinates": [ [ [ 20.0, 47.333333333333336 ], [ 20.0, 50.416666666666671 ], [ 16.666666666666668, 50.416666666666671 ], [ 16.666666666666668, 47.333333333333336 ], [ 20.0, 47.333333333333336 ] ] ] } },
{ "type": "Feature", "properties": { "district_id": "D-057", "population_density": 236.8, "current_business_count": 5 }, "geometry": { "type": "Polygon", "coordinates": [ [ [ 23.333333333333336, 47.333333333333336 ], [ 23.333333333333336, 50.416666666666671 ], [ 20.0, 50.416666666666671 ], [ 20.0, 47.333333333333336 ], [ 23.333333333333336, 47.333333333333336 ] ] ] } },
{ "type": "Feature", "properties": { "district_id": "D-058", "population_density": 137.2, "current_business_count": 3 }, "geometry": { "type": "Polygon", "coordinates": [ [ [ 26.666666666666671, 47.333333333333336 ], [ 26.666666666666671, 50.416666666666671 ], [ 23.333333333333336, 50.416666666666671 ], [ 23.333333333333336, 47.333333333333336 ], [ 26.666666666666671, 47.333333333333336 ] ] ] } },
{ "type": "Feature", "properties": { "district_id": "D-059", "population_density": 610.6, "current_business_count": 19 }, "geometry": { "type": "Polygon", "coordinates": [ [ [ 30.0, 47.333333333333336 ], [ 30.0, 50.416666666666671 ], [ 26.666666666666671, 50.416666666666671 ], [ 26.666666666666671, 47.333333333333336 ], [ 30.0, 47.333333333333336 ] ] ] } },
{ "type": "Feature", "properties": { "district_id": "D-060", "population_density": 50.0, "current_business_count": 1 }, "geometry": { "type": "Polygon", "coordinates": [ [ [ -6.666666666666666, 50.416666666666671 ], [ -6.666666666666666, 53.5 ], [ -10.0, 53.5 ], [ -10.0, 50.416666666666671 ], [ -6.666666666666666, 50.416666666666671 ] ] ] } },
{ "type": "Feature", "properties": { "district_id": "D-061", "population_density": 271.4, "current_business_count": 5 }, "geometry": { "type": "Polygon", "coordinates": [ [ [ -3.333333333333333, 50.416666666666671 ], [ -3.333333333333333, 53.5 ], [ -6.666666666666666, 53.5 ], [ -6.666666666666666, 50.416666666666671 ], [ -3.333333333333333, 50.416666666666671 ] ] ] } },
{ "type": "Feature", "properties": { "district_id": "D-062", "population_density": 3297.4, "current_business_count": 68 }, "geometry": { "type": "Polygon", "coordinates": [ [ [ 0.0, 50.416666666666671 ], [ 0.0, 53.5 ], [ -3.333333333333333, 53.5 ], [ -3.333333333333333, 50.416666666666671 ], [ 0.0, 50.416666666666671 ] ] ] } },
{ "type": "Feature", "properties": { "district_id": "D-063", "population_density": 4037.6, "current_business_count": 4 }, "geometry": { "type": "Polygon", "coordinates": [ [ [ 3.333333333333334, 50.416666666666671 ], [ 3.333333333333334, 53.5 ], [ 0.0, 53.5 ], [ 0.0, 50.416666666666671 ], [ 3.333333333333334, 50.416666666666671 ] ] ] } },
{ "type": "Feature", "properties": { "district_id": "D-064", "population_density": 579.6, "current_business_count": 9 }, "geometry": { "type": "Polygon", "coordinates": [ [ [ 6.666666666666668, 50.416666666666671 ], [ 6.666666666666668, 53.5 ], [ 3.333333333333334, 53.5 ], [ 3.333333333333334, 50.416666666666671 ], [ 6.666666666666668, 50.416666666666671 ] ] ] } },
{ "type": "Feature", "properties": { "district_id": "D-065", "population_density": 1374.6, "current_business_count": 24 }, "geometry": { "type": "Polygon", "coordinates": [ [ [ 10.0, 50.416666666666671 ], [ 10.0, 53.5 ], [ 6.666666666666668, 53.5 ], [ 6.666666666666668, 50.416666666666671 ], [ 10.0, 50.416666666666671 ] ] ] } },
{ "type": "Feature", "properties": { "district_id": "D-066", "population_density": 2739.1, "current_business_count": 50 }, "geometry": { "type": "Polygon", "coordinates": [ [ [ 13.333333333333336, 50.416666666666671 ], [ 13.333333333333336, 53.5 ], [ 10.0, 53.5 ], [ 10.0, 50.416666666666671 ], [ 13.333333333333336, 50.416666666666671 ] ] ] } },
{ "type": "Feature", "properties": { "district_id": "D-067", "population_density": 4069.0, "current_business_count": 80 }, "geometry": { "type": "Polygon", "coordinates": [ [ [ 16.666666666666668, 50.416666666666671 ], [ 16.666666666666668, 53.5 ], [ 13.333333333333336, 53.5 ], [ 13.333333333333336, 50.416666666666671 ], [ 16.666666666666668, 50.416666666666671 ] ] ] } },
{ "type": "Feature", "properties": { "district_id": "D-068", "population_density": 50.0, "current_business_count": 2 }, "geometry": { "type": "Polygon", "coordinates": [ [ [ 20.0, 50.416666666666671 ], [ 20.0, 53.5 ], [ 16.666666666666668, 53.5 ], [ 16.666666666666668, 50.416666666666671 ], [ 20.0, 50.416666666666671 ] ] ] } },
{ "type": "Feature", "properties": { "district_id": "D-069", "population_density": 318.6, "current_business_count": 6 }, "geometry": { "type": "Polygon", "coordinates": [ [ [ 23.333333333333336, 50.416666666666671 ], [ 23.333333333333336, 53.5 ], [ 20.0, 53.5 ], [ 20.0, 50.416666666666671 ], [ 23.333333333333336, 50.416666666666671 ] ] ] } },
{ "type": "Feature", "properties": { "district_id": "D-070", "population_density": 599.5, "current_business_count": 18 }, "geometry": { "type": "Polygon", "coordinates": [ [ [ 26.666666666666671, 50.416666666666671 ], [ 26.666666666666671, 53.5 ], [ 23.333333333333336, 53.5 ], [ 23.333333333333336, 50.416666666666671 ], [ 26.666666666666671, 50.416666666666671 ] ] ] } },
{ "type": "Feature", "properties": { "district_id": "D-071", "population_density": 126.9, "current_business_count": 4 }, "geometry": { "type": "Polygon", "coordinates": [ [ [ 30.0, 50.416666666666671 ], [ 30.0, 53.5 ], [ 26.666666666666671, 53.5 ], [ 26.666666666666671, 50.416666666666671 ], [ 30.0, 50.416666666666671 ] ] ] } },
{ "type": "Feature", "properties": { "district_id": "D-072", "population_density": 50.0, "current_business_count": 1 }, "geometry": { "type": "Polygon", "coordinates": [ [ [ -6.666666666666666, 53.5 ], [ -6.666666666666666, 56.583333333333336 ], [ -10.0, 56.583333333333336 ], [ -10.0, 53.5 ], [ -6.666666666666666, 53.5 ] ] ] } },
{ "type": "Feature", "properties": { "district_id": "D-073", "population_density": 705.4, "current_business_count": 20 }, "geometry": { "type": "Polygon", "coordinates": [ [ [ -3.333333333333333, 53.5 ], [ -3.333333333333333, 56.583333333333336 ], [ -6.666666666666666, 56.583333333333336 ], [ -6.666666666666666, 53.5 ], [ -3.333333333333333, 53.5 ] ] ] } },
{ "type": "Feature", "properties": { "district_id": "D-074", "population_density": 559.4, "current_business_count": 19 }, "geometry": { "type": "Polygon", "coordinates": [ [ [ 0.0, 53.5 ], [ 0.0, 56.583333333333336 ], [ -3.333333333333333, 56.583333333333336 ], [ -3.333333333333333, 53.5 ], [ 0.0, 53.5 ] ] ] } },
{ "type": "Feature", "properties": { "district_id": "D-075", "population_density": 1297.1, "current_business_count": 29 }, "geometry": { "type": "Polygon", "coordinates": [ [ [ 3.333333333333334, 53.5 ], [ 3.333333333333334, 56.583333333333336 ], [ 0.0, 56.583333333333336 ], [ 0.0, 53.5 ], [ 3.333333333333334, 53.5 ] ] ] } },
{ "type": "Feature", "properties": { "district_id": "D-076", "population_density": 482.0, "current_business_count": 7 }, "geometry": { "type": "Polygon", "coordinates": [ [ [ 6.666666666666668, 53.5 ], [ 6.666666666666668, 56.583333333333336 ], [ 3.333333333333334, 56.583333333333336 ], [ 3.333333333333334, 53.5 ], [ 6.666666666666668, 53.5 ] ] ] } },
{ "type": "Feature", "properties": { "district_id": "D-077", "population_density": 1123.1, "current_business_count": 28 }, "geometry": { "type": "Polygon", "coordinates": [ [ [ 10.0, 53.5 ], [ 10.0, 56.583333333333336 ], [ 6.666666666666668, 56.583333333333336 ], [ 6.666666666666668, 53.5 ], [ 10.0, 53.5 ] ] ] } },
{ "type": "Feature", "properties": { "district_id": "D-078", "population_density": 2636.6, "current_business_count": 47 }, "geometry": { "type": "Polygon", "coordinates": [ [ [ 13.333333333333336, 53.5 ], [ 13.333333333333336, 56.583333333333336 ], [ 10.0, 56.583333333333336 ], [ 10.0, 53.5 ], [ 13.333333333333336, 53.5 ] ] ] } },
{ "type": "Feature", "properties": { "district_id": "D-079", "population_density": 2431.9, "current_business_count": 62 }, "geometry": { "type": "Polygon", "coordinates": [ [ [ 16.666666666666668, 53.5 ], [ 16.666666666666668, 56.583333333333336 ], [ 13.333333333333336, 56.583333333333336 ], [ 13.333333333333336, 53.5 ], [ 16.666666666666668, 53.5 ] ] ] } },
{ "type": "Feature", "properties": { "district_id": "D-080", "population_density": 246.6, "current_business_count": 6 }, "geometry": { "type": "Polygon", "coordinates": [ [ [ 20.0, 53.5 ], [ 20.0, 56.583333333333336 ], [ 16.666666666666668, 56.583333333333336 ], [ 16.666666666666668, 53.5 ], [ 20.0, 53.5 ] ] ] } },
{ "type": "Feature", "properties": { "district_id": "D-081", "population_density": 50.0, "current_business_count": 1 }, "geometry": { "type": "Polygon", "coordinates": [ [ [ 23.333333333333336, 53.5 ], [ 23.333333333333336, 56.583333333333336 ], [ 20.0, 56.583333333333336 ], [ 20.0, 53.5 ], [ 23.333333333333336, 53.5 ] ] ] } },
{ "type": "Feature", "properties": { "district_id": "D-082", "population_density": 359.1, "current_business_count": 7 }, "geometry": { "type": "Polygon", "coordinates": [ [ [ 26.666666666666671, 53.5 ], [ 26.666666666666671, 56.583333333333336 ], [ 23.333333333333336, 56.583333333333336 ], [ 23.333333333333336, 53.5 ], [ 26.666666666666671, 53.5 ] ] ] } },
{ "type": "Feature", "properties": { "district_id": "D-083", "population_density": 50.0, "current_business_count": 1 }, "geometry": { "type": "Polygon", "coordinates": [ [ [ 30.0, 53.5 ], [ 30.0, 56.583333333333336 ], [ 26.666666666666671, 56.583333333333336 ], [ 26.666666666666671, 53.5 ], [ 30.0, 53.5 ] ] ] } },
{ "type": "Feature", "properties": { "district_id": "D-084", "population_density": 401.5, "current_business_count": 10 }, "geometry": { "type": "Polygon", "coordinates": [ [ [ -6.666666666666666, 56.583333333333336 ], [ -6.666666666666666, 59.666666666666671 ], [ -10.0, 59.666666666666671 ], [ -10.0, 56.583333333333336 ], [ -6.666666666666666, 56.583333333333336 ] ] ] } },
{ "type": "Feature", "properties": { "district_id": "D-085", "population_density": 50.0, "current_business_count": 1 }, "geometry": { "type": "Polygon", "coordinates": [ [ [ -3.333333333333333, 56.583333333333336 ], [ -3.333333333333333, 59.666666666666671 ], [ -6.666666666666666, 59.666666666666671 ], [ -6.666666666666666, 56.583333333333336 ], [ -3.333333333333333, 56.583333333333336 ] ] ] } },
{ "type": "Feature", "properties": { "district_id": "D-086", "population_density": 217.9, "current_business_count": 5 }, "geometry": { "type": "Polygon", "coordinates": [ [ [ 0.0, 56.583333333333336 ], [ 0.0, 59.666666666666671 ], [ -3.333333333333333, 59.666666666666671 ], [ -3.333333333333333, 56.583333333333336 ], [ 0.0, 56.583333333333336 ] ] ] } },
{ "type": "Feature", "properties": { "district_id": "D-087", "population_density": 266.1, "current_business_count": 6 }, "geometry": { "type": "Polygon", "coordinates": [ [ [ 3.333333333333334, 56.583333333333336 ], [ 3.333333333333334, 59.666666666666671 ], [ 0.0, 59.666666666666671 ], [ 0.0, 56.583333333333336 ], [ 3.333333333333334, 56.583333333333336 ] ] ] } },
{ "type": "Feature", "properties": { "district_id": "D-088", "population_density": 50.0, "current_business_count": 1 }, "geometry": { "type": "Polygon", "coordinates": [ [ [ 6.666666666666668, 56.583333333333336 ], [ 6.666666666666668, 59.666666666666671 ], [ 3.333333333333334, 59.666666666666671 ], [ 3.333333333333334, 56.583333333333336 ], [ 6.666666666666668, 56.583333333333336 ] ] ] } },
{ "type": "Feature", "properties": { "district_id": "D-089", "population_density": 50.0, "current_business_count": 2 }, "geometry": { "type": "Polygon", "coordinates": [ [ [ 10.0, 56.583333333333336 ], [ 10.0, 59.666666666666671 ], [ 6.666666666666668, 59.666666666666671 ], [ 6.666666666666668, 56.583333333333336 ], [ 10.0, 56.583333333333336 ] ] ] } },
{ "type": "Feature", "properties": { "district_id": "D-090", "population_density": 445.7, "current_business_count": 9 }, "geometry": { "type": "Polygon", "coordinates": [ [ [ 13.333333333333336, 56.583333333333336 ], [ 13.333333333333336, 59.666666666666671 ], [ 10.0, 59.666666666666671 ], [ 10.0, 56.583333333333336 ], [ 13.333333333333336, 56.583333333333336 ] ] ] } },
{ "type": "Feature", "properties": { "district_id": "D-091", "population_density": 476.7, "current_business_count": 7 }, "geometry": { "type": "Polygon", "coordinates": [ [ [ 16.666666666666668, 56.583333333333336 ], [ 16.666666666666668, 59.666666666666671 ], [ 13.333333333333336, 59.666666666666671 ], [ 13.333333333333336, 56.583333333333336 ], [ 16.666666666666668, 56.583333333333336 ] ] ] } },
{ "type": "Feature", "properties": { "district_id": "D-092", "population_density": 94.4, "current_business_count": 3 }, "geometry": { "type": "Polygon", "coordinates": [ [ [ 20.0, 56.583333333333336 ], [ 20.0, 59.666666666666671 ], [ 16.666666666666668, 59.666666666666671 ], [ 16.666666666666668, 56.583333333333336 ], [ 20.0, 56.583333333333336 ] ] ] } },
{ "type": "Feature", "properties": { "district_id": "D-093", "population_density": 549.5, "current_business_count": 14 }, "geometry": { "type": "Polygon", "coordinates": [ [ [ 23.333333333333336, 56.583333333333336 ], [ 23.333333333333336, 59.666666666666671 ], [ 20.0, 59.666666666666671 ], [ 20.0, 56.583333333333336 ], [ 23.333333333333336, 56.583333333333336 ] ] ] } },
{ "type": "Feature", "properties": { "district_id": "D-094", "population_density": 50.0, "current_business_count": 1 }, "geometry": { "type": "Polygon", "coordinates": [ [ [ 26.666666666666671, 56.583333333333336 ], [ 26.666666666666671, 59.666666666666671 ], [ 23.333333333333336, 59.666666666666671 ], [ 23.333333333333336, 56.583333333333336 ], [ 26.666666666666671, 56.583333333333336 ] ] ] } },
{ "type": "Feature", "properties": { "district_id": "D-095", "population_density": 175.5, "current_business_count": 4 }, "geometry": { "type": "Polygon", "coordinates": [ [ [ 30.0, 56.583333333333336 ], [ 30.0, 59.666666666666671 ], [ 26.666666666666671, 59.666666666666671 ], [ 26.666666666666671, 56.583333333333336 ], [ 30.0, 56.583333333333336 ] ] ] } },
{ "type": "Feature", "properties": { "district_id": "D-096", "population_density": 50.0, "current_business_count": 1 }, "geometry": { "type": "Polygon", "coordinates": [ [ [ -6.666666666666666, 59.666666666666671 ], [ -6.666666666666666, 62.75 ], [ -10.0, 62.75 ], [ -10.0, 59.666666666666671 ], [ -6.666666666666666, 59.666666666666671 ] ] ] } },
{ "type": "Feature", "properties": { "district_id": "D-097", "population_density": 676.1, "current_business_count": 14 }, "geometry": { "type": "Polygon", "coordinates": [ [ [ -3.333333333333333, 59.666666666666671 ], [ -3.333333333333333, 62.75 ], [ -6.666666666666666, 62.75 ], [ -6.666666666666666, 59.666666666666671 ], [ -3.333333333333333, 59.666666666666671 ] ] ] } },
{ "type": "Feature", "properties": { "district_id": "D-098", "population_density": 111.1, "current_business_count": 3 }, "geometry": { "type": "Polygon", "coordinates": [ [ [ 0.0, 59.666666666666671 ], [ 0.0, 62.75 ], [ -3.333333333333333, 62.75 ], [ -3.333333333333333, 59.666666666666671 ], [ 0.0, 59.666666666666671 ] ] ] } },
{ "type": "Feature", "properties": { "district_id": "D-099", "population_density": 56.3, "current_business_count": 1 }, "geometry": { "type": "Polygon", "coordinates": [ [ [ 3.333333333333334, 59.666666666666671 ], [ 3.333333333333334, 62.75 ], [ 0.0, 62.75 ], [ 0.0, 59.666666666666671 ], [ 3.333333333333334, 59.666666666666671 ] ] ] } },
{ "type": "Feature", "properties": { "district_id": "D-100", "population_density": 50.0, "current_business_count": 1 }, "geometry": { "type": "Polygon", "coordinates": [ [ [ 6.666666666666668, 59.666666666666671 ], [ 6.666666666666668, 62.75 ], [ 3.333333333333334, 62.75 ], [ 3.333333333333334, 59.666666666666671 ], [ 6.666666666666668, 59.666666666666671 ] ] ] } },
{ "type": "Feature", "properties": { "district_id": "D-101", "population_density": 107.8, "current_business_count": 2 }, "geometry": { "type": "Polygon", "coordinates": [ [ [ 10.0, 59.666666666666671 ], [ 10.0, 62.75 ], [ 6.666666666666668, 62.75 ], [ 6.666666666666668, 59.666666666666671 ], [ 10.0, 59.666666666666671 ] ] ] } },
{ "type": "Feature", "properties": { "district_id": "D-102", "population_density": 50.0, "current_business_count": 1 }, "geometry": { "type": "Polygon", "coordinates": [ [ [ 13.333333333333336, 59.666666666666671 ], [ 13.333333333333336, 62.75 ], [ 10.0, 62.75 ], [ 10.0, 59.666666666666671 ], [ 13.333333333333336, 59.666666666666671 ] ] ] } },
{ "type": "Feature", "properties": { "district_id": "D-103", "population_density": 50.0, "current_business_count": 1 }, "geometry": { "type": "Polygon", "coordinates": [ [ [ 16.666666666666668, 59.666666666666671 ], [ 16.666666666666668, 62.75 ], [ 13.333333333333336, 62.75 ], [ 13.333333333333336, 59.666666666666671 ], [ 16.666666666666668, 59.666666666666671 ] ] ] } },
{ "type": "Feature", "properties": { "district_id": "D-104", "population_density": 50.0, "current_business_count": 1 }, "geometry": { "type": "Polygon", "coordinates": [ [ [ 20.0, 59.666666666666671 ], [ 20.0, 62.75 ], [ 16.666666666666668, 62.75 ], [ 16.666666666666668, 59.666666666666671 ], [ 20.0, 59.666666666666671 ] ] ] } },
{ "type": "Feature", "properties": { "district_id": "D-105", "population_density": 194.2, "current_business_count": 6 }, "geometry": { "type": "Polygon", "coordinates": [ [ [ 23.333333333333336, 59.666666666666671 ], [ 23.333333333333336, 62.75 ], [ 20.0, 62.75 ], [ 20.0, 59.666666666666671 ], [ 23.333333333333336, 59.666666666666671 ] ] ] } },
{ "type": "Feature", "properties": { "district_id": "D-106", "population_density": 439.5, "current_business_count": 11 }, "geometry": { "type": "Polygon", "coordinates": [ [ [ 26.666666666666671, 59.666666666666671 ], [ 26.666666666666671, 62.75 ], [ 23.333333333333336, 62.75 ], [ 23.333333333333336, 59.666666666666671 ], [ 26.666666666666671, 59.666666666666671 ] ] ] } },
{ "type": "Feature", "properties": { "district_id": "D-107", "population_density": 50.0, "current_business_count": 2 }, "geometry": { "type": "Polygon", "coordinates": [ [ [ 30.0, 59.666666666666671 ], [ 30.0, 62.75 ], [ 26.666666666666671, 62.75 ], [ 26.666666666666671, 59.666666666666671 ], [ 30.0, 59.666666666666671 ] ] ] } },
{ "type": "Feature", "properties": { "district_id": "D-108", "population_density": 555.5, "current_business_count": 10 }, "geometry": { "type": "Polygon", "coordinates": [ [ [ -6.666666666666666, 62.75 ], [ -6.666666666666666, 65.833333333333343 ], [ -10.0, 65.833333333333343 ], [ -10.0, 62.75 ], [ -6.666666666666666, 62.75 ] ] ] } },
{ "type": "Feature", "properties": { "district_id": "D-109", "population_density": 50.0, "current_business_count": 2 }, "geometry": { "type": "Polygon", "coordinates": [ [ [ -3.333333333333333, 62.75 ], [ -3.333333333333333, 65.833333333333343 ], [ -6.666666666666666, 65.833333333333343 ], [ -6.666666666666666, 62.75 ], [ -3.333333333333333, 62.75 ] ] ] } },
{ "type": "Feature", "properties": { "district_id": "D-110", "population_density": 50.0, "current_business_count": 1 }, "geometry": { "type": "Polygon", "coordinates": [ [ [ 0.0, 62.75 ], [ 0.0, 65.833333333333343 ], [ -3.333333333333333, 65.833333333333343 ], [ -3.333333333333333, 62.75 ], [ 0.0, 62.75 ] ] ] } },
{ "type": "Feature", "properties": { "district_id": "D-111", "population_density": 50.0, "current_business_count": 1 }, "geometry": { "type": "Polygon", "coordinates": [ [ [ 3.333333333333334, 62.75 ], [ 3.333333333333334, 65.833333333333343 ], [ 0.0, 65.833333333333343 ], [ 0.0, 62.75 ], [ 3.333333333333334, 62.75 ] ] ] } },
{ "type": "Feature", "properties": { "district_id": "D-112", "population_density": 84.7, "current_business_count": 2 }, "geometry": { "type": "Polygon", "coordinates": [ [ [ 6.666666666666668, 62.75 ], [ 6.666666666666668, 65.833333333333343 ], [ 3.333333333333334, 65.833333333333343 ], [ 3.333333333333334, 62.75 ], [ 6.666666666666668, 62.75 ] ] ] } },
{ "type": "Feature", "properties": { "district_id": "D-113", "population_density": 534.0, "current_business_count": 18 }, "geometry": { "type": "Polygon", "coordinates": [ [ [ 10.0, 62.75 ], [ 10.0, 65.833333333333343 ], [ 6.666666666666668, 65.833333333333343 ], [ 6.666666666666668, 62.75 ], [ 10.0, 62.75 ] ] ] } },
{ "type": "Feature", "properties": { "district_id": "D-114", "population_density": 50.0, "current_business_count": 1 }, "geometry": { "type": "Polygon", "coordinates": [ [ [ 13.333333333333336, 62.75 ], [ 13.333333333333336, 65.833333333333343 ], [ 10.0, 65.833333333333343 ], [ 10.0, 62.75 ], [ 13.333333333333336, 62.75 ] ] ] } },
{ "type": "Feature", "properties": { "district_id": "D-115", "population_density": 170.6, "current_business_count": 3 }, "geometry": { "type": "Polygon", "coordinates": [ [ [ 16.666666666666668, 62.75 ], [ 16.666666666666668, 65.833333333333343 ], [ 13.333333333333336, 65.833333333333343 ], [ 13.333333333333336, 62.75 ], [ 16.666666666666668, 62.75 ] ] ] } },
{ "type": "Feature", "properties": { "district_id": "D-116", "population_density": 588.8, "current_business_count": 20 }, "geometry": { "type": "Polygon", "coordinates": [ [ [ 20.0, 62.75 ], [ 20.0, 65.833333333333343 ], [ 16.666666666666668, 65.833333333333343 ], [ 16.666666666666668, 62.75 ], [ 20.0, 62.75 ] ] ] } },
{ "type": "Feature", "properties": { "district_id": "D-117", "population_density": 50.0, "current_business_count": 1 }, "geometry": { "type": "Polygon", "coordinates": [ [ [ 23.333333333333336, 62.75 ], [ 23.333333333333336, 65.833333333333343 ], [ 20.0, 65.833333333333343 ], [ 20.0, 62.75 ], [ 23.333333333333336, 62.75 ] ] ] } },
{ "type": "Feature", "properties": { "district_id": "D-118", "population_density": 50.0, "current_business_count": 2 }, "geometry": { "type": "Polygon", "coordinates": [ [ [ 26.666666666666671, 62.75 ], [ 26.666666666666671, 65.833333333333343 ], [ 23.333333333333336, 65.833333333333343 ], [ 23.333333333333336, 62.75 ], [ 26.666666666666671, 62.75 ] ] ] } },
{ "type": "Feature", "properties": { "district_id": "D-119", "population_density": 1089.9, "current_business_count": 26 }, "geometry": { "type": "Polygon", "coordinates": [ [ [ 30.0, 62.75 ], [ 30.0, 65.833333333333343 ], [ 26.666666666666671, 65.833333333333343 ], [ 26.666666666666671, 62.75 ], [ 30.0, 62.75 ] ] ] } },
{ "type": "Feature", "properties": { "district_id": "D-120", "population_density": 193.8, "current_business_count": 7 }, "geometry": { "type": "Polygon", "coordinates": [ [ [ -6.666666666666666, 65.833333333333343 ], [ -6.666666666666666, 68.916666666666671 ], [ -10.0, 68.916666666666671 ], [ -10.0, 65.833333333333343 ], [ -6.666666666666666, 65.833333333333343 ] ] ] } },
{ "type": "Feature", "properties": { "district_id": "D-121", "population_density": 570.1, "current_business_count": 18 }, "geometry": { "type": "Polygon", "coordinates": [ [ [ -3.333333333333333, 65.833333333333343 ], [ -3.333333333333333, 68.916666666666671 ], [ -6.666666666666666, 68.916666666666671 ], [ -6.666666666666666, 65.833333333333343 ], [ -3.333333333333333, 65.833333333333343 ] ] ] } },
{ "type": "Feature", "properties": { "district_id": "D-122", "population_density": 137.6, "current_business_count": 3 }, "geometry": { "type": "Polygon", "coordinates": [ [ [ 0.0, 65.833333333333343 ], [ 0.0, 68.916666666666671 ], [ -3.333333333333333, 68.916666666666671 ], [ -3.333333333333333, 65.833333333333343 ], [ 0.0, 65.833333333333343 ] ] ] } },
{ "type": "Feature", "properties": { "district_id": "D-123", "population_density": 910.3, "current_business_count": 17 }, "geometry": { "type": "Polygon", "coordinates": [ [ [ 3.333333333333334, 65.833333333333343 ], [ 3.333333333333334, 68.916666666666671 ], [ 0.0, 68.916666666666671 ], [ 0.0, 65.833333333333343 ], [ 3.333333333333334, 65.833333333333343 ] ] ] } },
{ "type": "Feature", "properties": { "district_id": "D-124", "population_density": 50.0, "current_business_count": 1 }, "geometry": { "type": "Polygon", "coordinates": [ [ [ 6.666666666666668, 65.833333333333343 ], [ 6.666666666666668, 68.916666666666671 ], [ 3.333333333333334, 68.916666666666671 ], [ 3.333333333333334, 65.833333333333343 ], [ 6.666666666666668, 65.833333333333343 ] ] ] } },
{ "type": "Feature", "properties": { "district_id": "D-125", "population_density": 774.0, "current_business_count": 15 }, "geometry": { "type": "Polygon", "coordinates": [ [ [ 10.0, 65.833333333333343 ], [ 10.0, 68.916666666666671 ], [ 6.666666666666668, 68.916666666666671 ], [ 6.666666666666668, 65.833333333333343 ], [ 10.0, 65.833333333333343 ] ] ] } },
{ "type": "Feature", "properties": { "district_id": "D-126", "population_density": 727.4, "current_business_count": 12 }, "geometry": { "type": "Polygon", "coordinates": [ [ [ 13.333333333333336, 65.833333333333343 ], [ 13.333333333333336, 68.916666666666671 ], [ 10.0, 68.916666666666671 ], [ 10.0, 65.833333333333343 ], [ 13.333333333333336, 65.833333333333343 ] ] ] } },
{ "type": "Feature", "properties": { "district_id": "D-127", "population_density": 668.3, "current_business_count": 23 }, "geometry": { "type": "Polygon", "coordinates": [ [ [ 16.666666666666668, 65.833333333333343 ], [ 16.666666666666668, 68.916666666666671 ], [ 13.333333333333336, 68.916666666666671 ], [ 13.333333333333336, 65.833333333333343 ], [ 16.666666666666668, 65.833333333333343 ] ] ] } },
{ "type": "Feature", "properties": { "district_id": "D-128", "population_density": 50.0, "current_business_count": 1 }, "geometry": { "type": "Polygon", "coordinates": [ [ [ 20.0, 65.833333333333343 ], [ 20.0, 68.916666666666671 ], [ 16.666666666666668, 68.916666666666671 ], [ 16.666666666666668, 65.833333333333343 ], [ 20.0, 65.833333333333343 ] ] ] } },
{ "type": "Feature", "properties": { "district_id": "D-129", "population_density": 50.0, "current_business_count": 1 }, "geometry": { "type": "Polygon", "coordinates": [ [ [ 23.333333333333336, 65.833333333333343 ], [ 23.333333333333336, 68.916666666666671 ], [ 20.0, 68.916666666666671 ], [ 20.0, 65.833333333333343 ], [ 23.333333333333336, 65.833333333333343 ] ] ] } },
{ "type": "Feature", "properties": { "district_id": "D-130", "population_density": 194.6, "current_business_count": 4 }, "geometry": { "type": "Polygon", "coordinates": [ [ [ 26.666666666666671, 65.833333333333343 ], [ 26.666666666666671, 68.916666666666671 ], [ 23.333333333333336, 68.916666666666671 ], [ 23.333333333333336, 65.833333333333343 ], [ 26.666666666666671, 65.833333333333343 ] ] ] } },
{ "type": "Feature", "properties": { "district_id": "D-131", "population_density": 107.6, "current_business_count": 2 }, "geometry": { "type": "Polygon", "coordinates": [ [ [ 30.0, 65.833333333333343 ], [ 30.0, 68.916666666666671 ], [ 26.666666666666671, 68.916666666666671 ], [ 26.666666666666671, 65.833333333333343 ], [ 30.0, 65.833333333333343 ] ] ] } },
{ "type": "Feature", "properties": { "district_id": "D-132", "population_density": 206.0, "current_business_count": 6 }, "geometry": { "type": "Polygon", "coordinates": [ [ [ -6.666666666666666, 68.916666666666671 ], [ -6.666666666666666, 72.0 ], [ -10.0, 72.0 ], [ -10.0, 68.916666666666671 ], [ -6.666666666666666, 68.916666666666671 ] ] ] } },
{ "type": "Feature", "properties": { "district_id": "D-133", "population_density": 50.0, "current_business_count": 1 }, "geometry": { "type": "Polygon", "coordinates": [ [ [ -3.333333333333333, 68.916666666666671 ], [ -3.333333333333333, 72.0 ], [ -6.666666666666666, 72.0 ], [ -6.666666666666666, 68.916666666666671 ], [ -3.333333333333333, 68.916666666666671 ] ] ] } },
{ "type": "Feature", "properties": { "district_id": "D-134", "population_density": 50.0, "current_business_count": 1 }, "geometry": { "type": "Polygon", "coordinates": [ [ [ 0.0, 68.916666666666671 ], [ 0.0, 72.0 ], [ -3.333333333333333, 72.0 ], [ -3.333333333333333, 68.916666666666671 ], [ 0.0, 68.916666666666671 ] ] ] } },
{ "type": "Feature", "properties": { "district_id": "D-135", "population_density": 185.3, "current_business_count": 4 }, "geometry": { "type": "Polygon", "coordinates": [ [ [ 3.333333333333334, 68.916666666666671 ], [ 3.333333333333334, 72.0 ], [ 0.0, 72.0 ], [ 0.0, 68.916666666666671 ], [ 3.333333333333334, 68.916666666666671 ] ] ] } },
{ "type": "Feature", "properties": { "district_id": "D-136", "population_density": 50.0, "current_business_count": 2 }, "geometry": { "type": "Polygon", "coordinates": [ [ [ 6.666666666666668, 68.916666666666671 ], [ 6.666666666666668, 72.0 ], [ 3.333333333333334, 72.0 ], [ 3.333333333333334, 68.916666666666671 ], [ 6.666666666666668, 68.916666666666671 ] ] ] } },
{ "type": "Feature", "properties": { "district_id": "D-137", "population_density": 120.6, "current_business_count": 3 }, "geometry": { "type": "Polygon", "coordinates": [ [ [ 10.0, 68.916666666666671 ], [ 10.0, 72.0 ], [ 6.666666666666668, 72.0 ], [ 6.666666666666668, 68.916666666666671 ], [ 10.0, 68.916666666666671 ] ] ] } },
{ "type": "Feature", "properties": { "district_id": "D-138", "population_density": 145.8, "current_business_count": 4 }, "geometry": { "type": "Polygon", "coordinates": [ [ [ 13.333333333333336, 68.916666666666671 ], [ 13.333333333333336, 72.0 ], [ 10.0, 72.0 ], [ 10.0, 68.916666666666671 ], [ 13.333333333333336, 68.916666666666671 ] ] ] } },
{ "type": "Feature", "properties": { "district_id": "D-139", "population_density": 145.7, "current_business_count": 4 }, "geometry": { "type": "Polygon", "coordinates": [ [ [ 16.666666666666668, 68.916666666666671 ], [ 16.666666666666668, 72.0 ], [ 13.333333333333336, 72.0 ], [ 13.333333333333336, 68.916666666666671 ], [ 16.666666666666668, 68.916666666666671 ] ] ] } },
{ "type": "Feature", "properties": { "district_id": "D-140", "population_density": 50.0, "current_business_count": 1 }, "geometry": { "type": "Polygon", "coordinates": [ [ [ 20.0, 68.916666666666671 ], [ 20.0, 72.0 ], [ 16.666666666666668, 72.0 ], [ 16.666666666666668, 68.916666666666671 ], [ 20.0, 68.916666666666671 ] ] ] } },
{ "type": "Feature", "properties": { "district_id": "D-141", "population_density": 50.0, "current_business_count": 1 }, "geometry": { "type": "Polygon", "coordinates": [ [ [ 23.333333333333336, 68.916666666666671 ], [ 23.333333333333336, 72.0 ], [ 20.0, 72.0 ], [ 20.0, 68.916666666666671 ], [ 23.333333333333336, 68.916666666666671 ] ] ] } },
{ "type": "Feature", "properties": { "district_id": "D-142", "population_density": 298.5, "current_business_count": 9 }, "geometry": { "type": "Polygon", "coordinates": [ [ [ 26.666666666666671, 68.916666666666671 ], [ 26.666666666666671, 72.0 ], [ 23.333333333333336, 72.0 ], [ 23.333333333333336, 68.916666666666671 ], [ 26.666666666666671, 68.916666666666671 ] ] ] } },
{ "type": "Feature", "properties": { "district_id": "D-143", "population_density": 168.8, "current_business_count": 3 }, "geometry": { "type": "Polygon", "coordinates": [ [ [ 30.0, 68.916666666666671 ], [ 30.0, 72.0 ], [ 26.666666666666671, 72.0 ], [ 26.666666666666671, 68.916666666666671 ], [ 30.0, 68.916666666666671 ] ] ] } }
]
}
