{
"type": "FeatureCollection",
"name": "united_states_districts",
"crs": { "type": "name", "properties": { "name": "urn:ogc:def:crs:OGC:1.3:CRS84" } },
"features": [
{ "type": "Feature", "properties": { "district_id": "D-000", "population_density": 881.3, "current_business_count": 21 }, "geometry": { "type": "Polygon", "coordinates": [ [ [ -120.083333333333329, 24.0 ], [ -120.083333333333329, 26.166666666666668 ], [ -125.0, 26.166666666666668 ], [ -125.0, 24.0 ], [ -120.083333333333329, 24.0 ] ] ] } },
{ "type": "Feature", "properties": { "district_id": "D-001", "population_density": 333.8, "current_business_count": 5 }, "geometry": { "type": "Polygon", "coordinates": [ [ [ -115.166666666666671, 24.0 ], [ -115.166666666666671, 26.166666666666668 ], [ -120.083333333333329, 26.166666666666668 ], [ -120.083333333333329, 24.0 ], [ -115.166666666666671, 24.0 ] ] ] } },
{ "type": "Feature", "properties": { "district_id": "D-002", "population_density": 50.0, "current_business_count": 1 }, "geometry": { "type": "Polygon", "coordinates": [ [ [ -110.25, 24.0 ], [ -110.25, 26.166666666666668 ], [ -115.166666666666671, 26.166666666666668 ], [ -115.166666666666671, 24.0 ], [ -110.25, 24.0 ] ] ] } },
{ "type": "Feature", "properties": { "district_id": "D-003", "population_density": 50.0, "current_business_count": 1 }, "geometry": { "type": "Polygon", "coordinates": [ [ [ -105.333333333333329, 24.0 ], [ -105.333333333333329, 26.166666666666668 ], [ -110.25, 26.166666666666668 ], [ -110.25, 24.0 ], [ -105.333333333333329, 24.0 ] ] ] } },
{ "type": "Feature", "properties": { "district_id": "D-004", "population_density": 418.0, "current_business_count": 10 }, "geometry": { "type": "Polygon", "coordinates": [ [ [ -100.416666666666657, 24.0 ], [ -100.416666666666657, 26.166666666666668 ], [ -105.333333333333329, 26.166666666666668 ], [ -105.333333333333329, 24.0 ], [ -100.416666666666657, 24.0 ] ] ] } },
{ "type": "Feature", "properties": { "district_id": "D-005", "population_density": 646.7, "current_business_count": 15 }, "geometry": { "type": "Polygon", "coordinates": [ [ [ -95.5, 24.0 ], [ -95.5, 26.166666666666668 ], [ -100.416666666666657, 26.166666666666668 ], [ -100.416666666666657, 24.0 ], [ -95.5, 24.0 ] ] ] } },
{ "type": "Feature", "properties": { "district_id": "D-006", "population_density": 50.0, "current_business_count": 1 }, "geometry": { "type": "Polygon", "coordinates": [ [ [ -90.583333333333329, 24.0 ], [ -90.583333333333329, 26.166666666666668 ], [ -95.5, 26.166666666666668 ], [ -95.5, 24.0 ], [ -90.583333333333329, 24.0 ] ] ] } },
{ "type": "Feature", "properties": { "district_id": "D-007", "population_density": 50.0, "current_business_count": 1 }, "geometry": { "type": "Polygon", "coordinates": [ [ [ -85.666666666666657, 24.0 ], [ -85.666666666666657, 26.166666666666668 ], [ -90.583333333333329, 26.166666666666668 ], [ -90.583333333333329, 24.0 ], [ -85.666666666666657, 24.0 ] ] ] } },
{ "type": "Feature", "properties": { "district_id": "D-008", "population_density": 1320.8, "current_business_count": 45 }, "geometry": { "type": "Polygon", "coordinates": [ [ [ -80.75, 24.0 ], [ -80.75, 26.166666666666668 ], [ -85.666666666666657, 26.166666666666668 ], [ -85.666666666666657, 24.0 ], [ -80.75, 24.0 ] ] ] } },
{ "type": "Feature", "properties": { "district_id": "D-009", "population_density": 2566.4, "current_business_count": 57 }, "geometry": { "type": "Polygon", "coordinates": [ [ [ -75.833333333333329, 24.0 ], [ -75.833333333333329, 26.166666666666668 ], [ -80.75, 26.166666666666668 ], [ -80.75, 24.0 ], [ -75.833333333333329, 24.0 ] ] ] } },
{ "type": "Feature", "properties": { "district_id": "D-010", "population_density": 245.4, "current_business_count": 5 }, "geometry": { "type": "Polygon", "coordinates": [ [ [ -70.916666666666657, 24.0 ], [ -70.916666666666657, 26.166666666666668 ], [ -75.833333333333329, 26.166666666666668 ], [ -75.833333333333329, 24.0 ], [ -70.916666666666657, 24.0 ] ] ] } },
{ "type": "Feature", "properties": { "district_id": "D-011", "population_density": 50.0, "current_business_count": 1 }, "geometry": { "type": "Polygon", "coordinates": [ [ [ -66.0, 24.0 ], [ -66.0, 26.166666666666668 ], [ -70.916666666666657, 26.166666666666668 ], [ -70.916666666666657, 24.0 ], [ -66.0, 24.0 ] ] ] } },
{ "type": "Feature", "properties": { "district_id": "D-012", "population_density": 50.0, "current_business_count": 1 }, "geometry": { "type": "Polygon", "coordinates": [ [ [ -120.083333333333329, 26.166666666666668 ], [ -120.083333333333329, 28.333333333333332 ], [ -125.0, 28.333333333333332 ], [ -125.0, 26.166666666666668 ], [ -120.083333333333329, 26.166666666666668 ] ] ] } },
{ "type": "Feature", "properties": { "district_id": "D-013", "population_density": 77.5, "current_business_count": 2 }, "geometry": { "type": "Polygon", "coordinates": [ [ [ -115.166666666666671, 26.166666666666668 ], [ -115.166666666666671, 28.333333333333332 ], [ -120.083333333333329, 28.333333333333332 ], [ -120.083333333333329, 26.166666666666668 ], [ -115.166666666666671, 26.166666666666668 ] ] ] } },
{ "type": "Feature", "properties": { "district_id": "D-014", "population_density": 1055.8, "current_business_count": 32 }, "geometry": { "type": "Polygon", "coordinates": [ [ [ -110.25, 26.166666666666668 ], [ -110.25, 28.333333333333332 ], [ -115.166666666666671, 28.333333333333332 ], [ -115.166666666666671, 26.166666666666668 ], [ -110.25, 26.166666666666668 ] ] ] } },
{ "type": "Feature", "properties": { "district_id": "D-015", "population_density": 50.0, "current_business_count": 1 }, "geometry": { "type": "Polygon", "coordinates": [ [ [ -105.333333333333329, 26.166666666666668 ], [ -105.333333333333329, 28.333333333333332 ], [ -110.25, 28.333333333333332 ], [ -110.25, 26.166666666666668 ], [ -105.333333333333329, 26.166666666666668 ] ] ] } },
{ "type": "Feature", "properties": { "district_id": "D-016", "population_density": 59.9, "current_business_count": 2 }, "geometry": { "type": "Polygon", "coordinates": [ [ [ -100.416666666666657, 26.166666666666668 ], [ -100.416666666666657, 28.333333333333332 ], [ -105.333333333333329, 28.333333333333332 ], [ -105.333333333333329, 26.166666666666668 ], [ -100.416666666666657, 26.166666666666668 ] ] ] } },
{ "type": "Feature", "properties": { "district_id": "D-017", "population_density": 1335.3, "current_business_count": 41 }, "geometry": { "type": "Polygon", "coordinates": [ [ [ -95.5, 26.166666666666668 ], [ -95.5, 28.333333333333332 ], [ -100.416666666666657, 28.333333333333332 ], [ -100.416666666666657, 26.166666666666668 ], [ -95.5, 26.166666666666668 ] ] ] } },
{ "type": "Feature", "properties": { "district_id": "D-018", "population_density": 596.4, "current_business_count": 17 }, "geometry": { "type": "Polygon", "coordinates": [ [ [ -90.583333333333329, 26.166666666666668 ], [ -90.583333333333329, 28.333333333333332 ], [ -95.5, 28.333333333333332 ], [ -95.5, 26.166666666666668 ], [ -90.583333333333329, 26.166666666666668 ] ] ] } },
{ "type": "Feature", "properties": { "district_id": "D-019", "population_density": 1054.8, "current_business_count": 30 }, "geometry": { "type": "Polygon", "coordinates": [ [ [ -85.666666666666657, 26.166666666666668 ], [ -85.666666666666657, 28.333333333333332 ], [ -90.583333333333329, 28.333333333333332 ], [ -90.583333333333329, 26.166666666666668 ], [ -85.666666666666657, 26.166666666666668 ] ] ] } },
{ "type": "Feature", "properties": { "district_id": "D-020", "population_density": 1906.0, "current_business_count": 67 }, "geometry": { "type": "Polygon", "coordinates": [ [ [ -80.75, 26.166666666666668 ], [ -80.75, 28.333333333333332 ], [ -85.666666666666657, 28.333333333333332 ], [ -85.666666666666657, 26.166666666666668 ], [ -80.75, 26.166666666666668 ] ] ] } },
{ "type": "Feature", "properties": { "district_id": "D-021", "population_density": 1574.1, "current_business_count": 42 }, "geometry": { "type": "Polygon", "coordinates": [ [ [ -75.833333333333329, 26.166666666666668 ], [ -75.833333333333329, 28.333333333333332 ], [ -80.75, 28.333333333333332 ], [ -80.75, 26.166666666666668 ], [ -75.833333333333329, 26.166666666666668 ] ] ] } },
{ "type": "Feature", "properties": { "district_id": "D-022", "population_density": 758.8, "current_business_count": 16 }, "geometry": { "type": "Polygon", "coordinates": [ [ [ -70.916666666666657, 26.166666666666668 ], [ -70.916666666666657, 28.333333333333332 ], [ -75.833333333333329, 28.333333333333332 ], [ -75.833333333333329, 26.166666666666668 ], [ -70.916666666666657, 26.166666666666668 ] ] ] } },
{ "type": "Feature", "properties": { "district_id": "D-023", "population_density": 50.0, "current_business_count": 1 }, "geometry": { "type": "Polygon", "coordinates": [ [ [ -66.0, 26.166666666666668 ], [ -66.0, 28.333333333333332 ], [ -70.916666666666657, 28.333333333333332 ], [ -70.916666666666657, 26.166666666666668 ], [ -66.0, 26.166666666666668 ] ] ] } },
{ "type": "Feature", "properties": { "district_id": "D-024", "population_density": 304.0, "current_business_count": 9 }, "geometry": { "type": "Polygon", "coordinates": [ [ [ -120.083333333333329, 28.333333333333332 ], [ -120.083333333333329, 30.5 ], [ -125.0, 30.5 ], [ -125.0, 28.333333333333332 ], [ -120.083333333333329, 28.333333333333332 ] ] ] } },
{ "type": "Feature", "properties": { "district_id": "D-025", "population_density": 949.9, "current_business_count": 32 }, "geometry": { "type": "Polygon", "coordinates": [ [ [ -115.166666666666671, 28.333333333333332 ], [ -115.166666666666671, 30.5 ], [ -120.083333333333329, 30.5 ], [ -120.083333333333329, 28.333333333333332 ], [ -115.166666666666671, 28.333333333333332 ] ] ] } },
{ "type": "Feature", "properties": { "district_id": "D-026", "population_density": 594.1, "current_business_count": 10 }, "geometry": { "type": "Polygon", "coordinates": [ [ [ -110.25, 28.333333333333332 ], [ -110.25, 30.5 ], [ -115.166666666666671, 30.5 ], [ -115.166666666666671, 28.333333333333332 ], [ -110.25, 28.333333333333332 ] ] ] } },
{ "type": "Feature", "properties": { "district_id": "D-027", "population_density": 792.3, "current_business_count": 12 }, "geometry": { "type": "Polygon", "coordinates": [ [ [ -105.333333333333329, 28.333333333333332 ], [ -105.333333333333329, 30.5 ], [ -110.25, 30.5 ], [ -110.25, 28.333333333333332 ], [ -105.333333333333329, 28.333333333333332 ] ] ] } },
{ "type": "Feature", "properties": { "district_id": "D-028", "population_density": 422.9, "current_business_count": 13 }, "geometry": { "type": "Polygon", "coordinates": [ [ [ -100.416666666666657, 28.333333333333332 ], [ -100.416666666666657, 30.5 ], [ -105.333333333333329, 30.5 ], [ -105.333333333333329, 28.333333333333332 ], [ -100.416666666666657, 28.333333333333332 ] ] ] } },
{ "type": "Feature", "properties": { "district_id": "D-029", "population_density": 2905.9, "current_business_count": 68 }, "geometry": { "type": "Polygon", "coordinates": [ [ [ -95.5, 28.333333333333332 ], [ -95.5, 30.5 ], [ -100.416666666666657, 30.5 ], [ -100.416666666666657, 28.333333333333332 ], [ -95.5, 28.333333333333332 ] ] ] } },
{ "type": "Feature", "properties": { "district_id": "D-030", "population_density": 2080.5, "current_business_count": 38 }, "geometry": { "type": "Polygon", "coordinates": [ [ [ -90.583333333333329, 28.333333333333332 ], [ -90.583333333333329, 30.5 ], [ -95.5, 30.5 ], [ -95.5, 28.333333333333332 ], [ -90.583333333333329, 28.333333333333332 ] ] ] } },
{ "type": "Feature", "properties": { "district_id": "D-031", "population_density": 544.8, "current_business_count": 9 }, "geometry": { "type": "Polygon", "coordinates": [ [ [ -85.666666666666657, 28.333333333333332 ], [ -85.666666666666657, 30.5 ], [ -90.583333333333329, 30.5 ], [ -90.583333333333329, 28.333333333333332 ], [ -85.666666666666657, 28.333333333333332 ] ] ] } },
{ "type": "Feature", "properties": { "district_id": "D-032", "population_density": 2233.9, "current_business_count": 59 }, "geometry": { "type": "Polygon", "coordinates": [ [ [ -80.75, 28.333333333333332 ], [ -80.75, 30.5 ], [ -85.666666666666657, 30.5 ], [ -85.666666666666657, 28.333333333333332 ], [ -80.75, 28.333333333333332 ] ] ] } },
{ "type": "Feature", "properties": { "district_id": "D-033", "population_density": 1689.3, "current_business_count": 52 }, "geometry": { "type": "Polygon", "coordinates": [ [ [ -75.833333333333329, 28.333333333333332 ], [ -75.833333333333329, 30.5 ], [ -80.75, 30.5 ], [ -80.75, 28.333333333333332 ], [ -75.833333333333329, 28.333333333333332 ] ] ] } },
{ "type": "Feature", "properties": { "district_id": "D-034", "population_density": 528.3, "current_business_count": 16 }, "geometry": { "type": "Polygon", "coordinates": [ [ [ -70.916666666666657, 28.333333333333332 ], [ -70.916666666666657, 30.5 ], [ -75.833333333333329, 30.5 ], [ -75.833333333333329, 28.333333333333332 ], [ -70.916666666666657, 28.333333333333332 ] ] ] } },
{ "type": "Feature", "properties": { "district_id": "D-035", "population_density": 50.0, "current_business_count": 1 }, "geometry": { "type": "Polygon", "coordinates": [ [ [ -66.0, 28.333333333333332 ], [ -66.0, 30.5 ], [ -70.916666666666657, 30.5 ], [ -70.916666666666657, 28.333333333333332 ], [ -66.0, 28.333333333333332 ] ] ] } },
{ "type": "Feature", "properties": { "district_id": "D-036", "population_density": 925.6, "current_business_count": 29 }, "geometry": { "type": "Polygon", "coordinates": [ [ [ -120.083333333333329, 30.5 ], [ -120.083333333333329, 32.666666666666664 ], [ -125.0, 32.666666666666664 ], [ -125.0, 30.5 ], [ -120.083333333333329, 30.5 ] ] ] } },
{ "type": "Feature", "properties": { "district_id": "D-037", "population_density": 3672.8, "current_business_count": 78 }, "geometry": { "type": "Polygon", "coordinates": [ [ [ -115.166666666666671, 30.5 ], [ -115.166666666666671, 32.666666666666664 ], [ -120.083333333333329, 32.666666666666664 ], [ -120.083333333333329, 30.5 ], [ -115.166666666666671, 30.5 ] ] ] } },
{ "type": "Feature", "properties": { "district_id": "D-038", "population_density": 166.5, "current_business_count": 6 }, "geometry": { "type": "Polygon", "coordinates": [ [ [ -110.25, 30.5 ], [ -110.25, 32.666666666666664 ], [ -115.166666666666671, 32.666666666666664 ], [ -115.166666666666671, 30.5 ], [ -110.25, 30.5 ] ] ] } },
{ "type": "Feature", "properties": { "district_id": "D-039", "population_density": 344.1, "current_business_count": 11 }, "geometry": { "type": "Polygon", "coordinates": [ [ [ -105.333333333333329, 30.5 ], [ -105.333333333333329, 32.666666666666664 ], [ -110.25, 32.666666666666664 ], [ -110.25, 30.5 ], [ -105.333333333333329, 30.5 ] ] ] } },
{ "type": "Feature", "properties": { "district_id": "D-040", "population_density": 283.0, "current_business_count": 4 }, "geometry": { "type": "Polygon", "coordinates": [ [ [ -100.416666666666657, 30.5 ], [ -100.416666666666657, 32.666666666666664 ], [ -105.333333333333329, 32.666666666666664 ], [ -105.333333333333329, 30.5 ], [ -100.416666666666657, 30.5 ] ] ] } },
{ "type": "Feature", "properties": { "district_id": "D-041", "population_density": 4186.2, "current_business_count": 75 }, "geometry": { "type": "Polygon", "coordinates": [ [ [ -95.5, 30.5 ], [ -95.5, 32.666666666666664 ], [ -100.416666666666657, 32.666666666666664 ], [ -100.416666666666657, 30.5 ], [ -95.5, 30.5 ] ] ] } },
{ "type": "Feature", "properties": { "district_id": "D-042", "population_density": 2179.3, "current_business_count": 73 }, "geometry": { "type": "Polygon", "coordinates": [ [ [ -90.583333333333329, 30.5 ], [ -90.583333333333329, 32.666666666666664 ], [ -95.5, 32.666666666666664 ], [ -95.5, 30.5 ], [ -90.583333333333329, 30.5 ] ] ] } },
{ "type": "Feature", "properties": { "district_id": "D-043", "population_density": 138.1, "current_business_count": 3 }, "geometry": { "type": "Polygon", "coordinates": [ [ [ -85.666666666666657, 30.5 ], [ -85.666666666666657, 32.666666666666664 ], [ -90.583333333333329, 32.666666666666664 ], [ -90.583333333333329, 30.5 ], [ -85.666666666666657, 30.5 ] ] ] } },
{ "type": "Feature", "properties": { "district_id": "D-044", "population_density": 463.0, "current_business_count": 12 }, "geometry": { "type": "Polygon", "coordinates": [ [ [ -80.75, 30.5 ], [ -80.75, 32.666666666666664 ], [ -85.666666666666657, 32.666666666666664 ], [ -85.666666666666657, 30.5 ], [ -80.75, 30.5 ] ] ] } },
{ "type": "Feature", "properties": { "district_id": "D-045", "population_density": 1144.3, "current_business_count": 37 }, "geometry": { "type": "Polygon", "coordinates": [ [ [ -75.833333333333329, 30.5 ], [ -75.833333333333329, 32.666666666666664 ], [ -80.75, 32.666666666666664 ], [ -80.75, 30.5 ], [ -75.833333333333329, 30.5 ] ] ] } },
{ "type": "Feature", "properties": { "district_id": "D-046", "population_density": 50.0, "current_business_count": 1 }, "geometry": { "type": "Polygon", "coordinates": [ [ [ -70.916666666666657, 30.5 ], [ -70.916666666666657, 32.666666666666664 ], [ -75.833333333333329, 32.666666666666664 ], [ -75.833333333333329, 30.5 ], [ -70.916666666666657, 30.5 ] ] ] } },
{ "type": "Feature", "properties": { "district_id": "D-047", "population_density": 268.4, "current_business_count": 5 }, "geometry": { "type": "Polygon", "coordinates": [ [ [ -66.0, 30.5 ], [ -66.0, 32.666666666666664 ], [ -70.916666666666657, 32.666666666666664 ], [ -70.916666666666657, 30.5 ], [ -66.0, 30.5 ] ] ] } },
{ "type": "Feature", "properties": { "district_id": "D-048", "population_density": 2935.9, "current_business_count": 66 }, "geometry": { "type": "Polygon", "coordinates": [ [ [ -120.083333333333329, 32.666666666666664 ], [ -120.083333333333329, 34.833333333333329 ], [ -125.0, 34.833333333333329 ], [ -125.0, 32.666666666666664 ], [ -120.083333333333329, 32.666666666666664 ] ] ] } },
{ "type": "Feature", "properties": { "district_id": "D-049", "population_density": 5821.0, "current_business_count": 1 }, "geometry": { "type": "Polygon", "coordinates": [ [ [ -115.166666666666671, 32.666666666666664 ], [ -115.166666666666671, 34.833333333333329 ], [ -120.083333333333329, 34.833333333333329 ], [ -120.083333333333329, 32.666666666666664 ], [ -115.166666666666671, 32.666666666666664 ] ] ] } },
{ "type": "Feature", "properties": { "district_id": "D-050", "population_density": 442.7, "current_business_count": 8 }, "geometry": { "type": "Polygon", "coordinates": [ [ [ -110.25, 32.666666666666664 ], [ -110.25, 34.833333333333329 ], [ -115.166666666666671, 34.833333333333329 ], [ -115.166666666666671, 32.666666666666664 ], [ -110.25, 32.666666666666664 ] ] ] } },
{ "type": "Feature", "properties": { "district_id": "D-051", "population_density": 50.0, "current_business_count": 1 }, "geometry": { "type": "Polygon", "coordinates": [ [ [ -105.333333333333329, 32.666666666666664 ], [ -105.333333333333329, 34.833333333333329 ], [ -110.25, 34.833333333333329 ], [ -110.25, 32.666666666666664 ], [ -105.333333333333329, 32.666666666666664 ] ] ] } },
{ "type": "Feature", "properties": { "district_id": "D-052", "population_density": 485.7, "current_business_count": 8 }, "geometry": { "type": "Polygon", "coordinates": [ [ [ -100.416666666666657, 32.666666666666664 ], [ -100.416666666666657, 34.833333333333329 ], [ -105.333333333333329, 34.833333333333329 ], [ -105.333333333333329, 32.666666666666664 ], [ -100.416666666666657, 32.666666666666664 ] ] ] } },
{ "type": "Feature", "properties": { "district_id": "D-053", "population_density": 4598.7, "current_business_count": 76 }, "geometry": { "type": "Polygon", "coordinates": [ [ [ -95.5, 32.666666666666664 ], [ -95.5, 34.833333333333329 ], [ -100.416666666666657, 34.833333333333329 ], [ -100.416666666666657, 32.666666666666664 ], [ -95.5, 32.666666666666664 ] ] ] } },
{ "type": "Feature", "properties": { "district_id": "D-054", "population_density": 2139.7, "current_business_count": 50 }, "geometry": { "type": "Polygon", "coordinates": [ [ [ -90.583333333333329, 32.666666666666664 ], [ -90.583333333333329, 34.833333333333329 ], [ -95.5, 34.833333333333329 ], [ -95.5, 32.666666666666664 ], [ -90.583333333333329, 32.666666666666664 ] ] ] } },
{ "type": "Feature", "properties": { "district_id": "D-055", "population_density": 298.9, "current_business_count": 7 }, "geometry": { "type": "Polygon", "coordinates": [ [ [ -85.666666666666657, 32.666666666666664 ], [ -85.666666666666657, 34.833333333333329 ], [ -90.583333333333329, 34.833333333333329 ], [ -90.583333333333329, 32.666666666666664 ], [ -85.666666666666657, 32.666666666666664 ] ] ] } },
{ "type": "Feature", "properties": { "district_id": "D-056", "population_density": 272.2, "current_business_count": 6 }, "geometry": { "type": "Polygon", "coordinates": [ [ [ -80.75, 32.666666666666664 ], [ -80.75, 34.833333333333329 ], [ -85.666666666666657, 34.833333333333329 ], [ -85.666666666666657, 32.666666666666664 ], [ -80.75, 32.666666666666664 ] ] ] } },
{ "type": "Feature", "properties": { "district_id": "D-057", "population_density": 436.5, "current_business_count": 14 }, "geometry": { "type": "Polygon", "coordinates": [ [ [ -75.833333333333329, 32.666666666666664 ], [ -75.833333333333329, 34.833333333333329 ], [ -80.75, 34.833333333333329 ], [ -80.75, 32.666666666666664 ], [ -75.833333333333329, 32.666666666666664 ] ] ] } },
{ "type": "Feature", "properties": { "district_id": "D-058", "population_density": 50.0, "current_business_count": 1 }, "geometry": { "type": "Polygon", "coordinates": [ [ [ -70.916666666666657, 32.666666666666664 ], [ -70.916666666666657, 34.833333333333329 ], [ -75.833333333333329, 34.833333333333329 ], [ -75.833333333333329, 32.666666666666664 ], [ -70.916666666666657, 32.666666666666664 ] ] ] } },
{ "type": "Feature", "properties": { "district_id": "D-059", "population_density": 50.0, "current_business_count": 1 }, "geometry": { "type": "Polygon", "coordinates": [ [ [ -66.0, 32.666666666666664 ], [ -66.0, 34.833333333333329 ], [ -70.916666666666657, 34.833333333333329 ], [ -70.916666666666657, 32.666666666666664 ], [ -66.0, 32.666666666666664 ] ] ] } },
{ "type": "Feature", "properties": { "district_id": "D-060", "population_density": 4519.6, "current_business_count": 150 }, "geometry": { "type": "Polygon", "coordinates": [ [ [ -120.083333333333329, 34.833333333333329 ], [ -120.083333333333329, 37.0 ], [ -125.0, 37.0 ], [ -125.0, 34.833333333333329 ], [ -120.083333333333329, 34.833333333333329 ] ] ] } },
{ "type": "Feature", "properties": { "district_id": "D-061", "population_density": 5728.9, "current_business_count": 1 }, "geometry": { "type": "Polygon", "coordinates": [ [ [ -115.166666666666671, 34.833333333333329 ], [ -115.166666666666671, 37.0 ], [ -120.083333333333329, 37.0 ], [ -120.083333333333329, 34.833333333333329 ], [ -115.166666666666671, 34.833333333333329 ] ] ] } },
{ "type": "Feature", "properties": { "district_id": "D-062", "population_density": 629.9, "current_business_count": 11 }, "geometry": { "type": "Polygon", "coordinates": [ [ [ -110.25, 34.833333333333329 ], [ -110.25, 37.0 ], [ -115.166666666666671, 37.0 ], [ -115.166666666666671, 34.833333333333329 ], [ -110.25, 34.833333333333329 ] ] ] } },
{ "type": "Feature", "properties": { "district_id": "D-063", "population_density": 50.0, "current_business_count": 2 }, "geometry": { "type": "Polygon", "coordinates": [ [ [ -105.333333333333329, 34.833333333333329 ], [ -105.333333333333329, 37.0 ], [ -110.25, 37.0 ], [ -110.25, 34.833333333333329 ], [ -105.333333333333329, 34.833333333333329 ] ] ] } },
{ "type": "Feature", "properties": { "district_id": "D-064", "population_density": 665.3, "current_business_count": 20 }, "geometry": { "type": "Polygon", "coordinates": [ [ [ -100.416666666666657, 34.833333333333329 ], [ -100.416666666666657, 37.0 ], [ -105.333333333333329, 37.0 ], [ -105.333333333333329, 34.833333333333329 ], [ -100.416666666666657, 34.833333333333329 ] ] ] } },
{ "type": "Feature", "properties": { "district_id": "D-065", "population_density": 2024.8, "current_business_count": 47 }, "geometry": { "type": "Polygon", "coordinates": [ [ [ -95.5, 34.833333333333329 ], [ -95.5, 37.0 ], [ -100.416666666666657, 37.0 ], [ -100.416666666666657, 34.833333333333329 ], [ -95.5, 34.833333333333329 ] ] ] } },
{ "type": "Feature", "properties": { "district_id": "D-066", "population_density": 1373.6, "current_business_count": 24 }, "geometry": { "type": "Polygon", "coordinates": [ [ [ -90.583333333333329, 34.833333333333329 ], [ -90.583333333333329, 37.0 ], [ -95.5, 37.0 ], [ -95.5, 34.833333333333329 ], [ -90.583333333333329, 34.833333333333329 ] ] ] } },
{ "type": "Feature", "properties": { "district_id": "D-067", "population_density": 50.0, "current_business_count": 1 }, "geometry": { "type": "Polygon", "coordinates": [ [ [ -85.666666666666657, 34.833333333333329 ], [ -85.666666666666657, 37.0 ], [ -90.583333333333329, 37.0 ], [ -90.583333333333329, 34.833333333333329 ], [ -85.666666666666657, 34.833333333333329 ] ] ] } },
{ "type": "Feature", "properties": { "district_id": "D-068", "population_density": 779.2, "current_business_count": 22 }, "geometry": { "type": "Polygon", "coordinates": [ [ [ -80.75, 34.833333333333329 ], [ -80.75, 37.0 ], [ -85.666666666666657, 37.0 ], [ -85.666666666666657, 34.833333333333329 ], [ -80.75, 34.833333333333329 ] ] ] } },
{ "type": "Feature", "properties": { "district_id": "D-069", "population_density": 555.7, "current_business_count": 13 }, "geometry": { "type": "Polygon", "coordinates": [ [ [ -75.833333333333329, 34.833333333333329 ], [ -75.833333333333329, 37.0 ], [ -80.75, 37.0 ], [ -80.75, 34.833333333333329 ], [ -75.833333333333329, 34.833333333333329 ] ] ] } },
{ "type": "Feature", "properties": { "district_id": "D-070", "population_density": 462.1, "current_business_count": 10 }, "geometry": { "type": "Polygon", "coordinates": [ [ [ -70.916666666666657, 34.833333333333329 ], [ -70.916666666666657, 37.0 ], [ -75.833333333333329, 37.0 ], [ -75.833333333333329, 34.833333333333329 ], [ -70.916666666666657, 34.833333333333329 ] ] ] } },
{ "type": "Feature", "properties": { "district_id": "D-071", "population_density": 268.4, "current_business_count": 9 }, "geometry": { "type": "Polygon", "coordinates": [ [ [ -66.0, 34.833333333333329 ], [ -66.0, 37.0 ], [ -70.916666666666657, 37.0 ], [ -70.916666666666657, 34.833333333333329 ], [ -66.0, 34.833333333333329 ] ] ] } },
{ "type": "Feature", "properties": { "district_id": "D-072", "population_density": 5180.3, "current_business_count": 4 }, "geometry": { "type": "Polygon", "coordinates": [ [ [ -120.083333333333329, 37.0 ], [ -120.083333333333329, 39.166666666666664 ], [ -125.0, 39.166666666666664 ], [ -125.0, 37.0 ], [ -120.083333333333329, 37.0 ] ] ] } },
{ "type": "Feature", "properties": { "district_id": "D-073", "population_density": 1370.1, "current_business_count": 32 }, "geometry": { "type": "Polygon", "coordinates": [ [ [ -115.166666666666671, 37.0 ], [ -115.166666666666671, 39.166666666666664 ], [ -120.083333333333329, 39.166666666666664 ], [ -120.083333333333329, 37.0 ], [ -115.166666666666671, 37.0 ] ] ] } },
{ "type": "Feature", "properties": { "district_id": "D-074", "population_density": 50.0, "current_business_count": 2 }, "geometry": { "type": "Polygon", "coordinates": [ [ [ -110.25, 37.0 ], [ -110.25, 39.166666666666664 ], [ -115.166666666666671, 39.166666666666664 ], [ -115.166666666666671, 37.0 ], [ -110.25, 37.0 ] ] ] } },
{ "type": "Feature", "properties": { "district_id": "D-075", "population_density": 50.0, "current_business_count": 1 }, "geometry": { "type": "Polygon", "coordinates": [ [ [ -105.333333333333329, 37.0 ], [ -105.333333333333329, 39.166666666666664 ], [ -110.25, 39.166666666666664 ], [ -110.25, 37.0 ], [ -105.333333333333329, 37.0 ] ] ] } },
{ "type": "Feature", "properties": { "district_id": "D-076", "population_density": 311.1, "current_business_count": 9 }, "geometry": { "type": "Polygon", "coordinates": [ [ [ -100.416666666666657, 37.0 ], [ -100.416666666666657, 39.166666666666664 ], [ -105.333333333333329, 39.166666666666664 ], [ -105.333333333333329, 37.0 ], [ -100.416666666666657, 37.0 ] ] ] } },
{ "type": "Feature", "properties": { "district_id": "D-077", "population_density": 191.8, "current_business_count": 4 }, "geometry": { "type": "Polygon", "coordinates": [ [ [ -95.5, 37.0 ], [ -95.5, 39.166666666666664 ], [ -100.416666666666657, 39.166666666666664 ], [ -100.416666666666657, 37.0 ], [ -95.5, 37.0 ] ] ] } },
{ "type": "Feature", "properties": { "district_id": "D-078", "population_density": 50.0, "current_business_count": 1 }, "geometry": { "type": "Polygon", "coordinates": [ [ [ -90.583333333333329, 37.0 ], [ -90.583333333333329, 39.166666666666664 ], [ -95.5, 39.166666666666664 ], [ -95.5, 37.0 ], [ -90.583333333333329, 37.0 ] ] ] } },
{ "type": "Feature", "properties": { "district_id": "D-079", "population_density": 1902.1, "current_business_count": 36 }, "geometry": { "type": "Polygon", "coordinates": [ [ [ -85.666666666666657, 37.0 ], [ -85.666666666666657, 39.166666666666664 ], [ -90.583333333333329, 39.166666666666664 ], [ -90.583333333333329, 37.0 ], [ -85.666666666666657, 37.0 ] ] ] } },
{ "type": "Feature", "properties": { "district_id": "D-080", "population_density": 214.0, "current_business_count": 7 }, "geometry": { "type": "Polygon", "coordinates": [ [ [ -80.75, 37.0 ], [ -80.75, 39.166666666666664 ], [ -85.666666666666657, 39.166666666666664 ], [ -85.666666666666657, 37.0 ], [ -80.75, 37.0 ] ] ] } },
{ "type": "Feature", "properties": { "district_id": "D-081", "population_density": 50.0, "current_business_count": 2 }, "geometry": { "type": "Polygon", "coordinates": [ [ [ -75.833333333333329, 37.0 ], [ -75.833333333333329, 39.166666666666664 ], [ -80.75, 39.166666666666664 ], [ -80.75, 37.0 ], [ -75.833333333333329, 37.0 ] ] ] } },
{ "type": "Feature", "properties": { "district_id": "D-082", "population_density": 2480.6, "current_business_count": 80 }, "geometry": { "type": "Polygon", "coordinates": [ [ [ -70.916666666666657, 37.0 ], [ -70.916666666666657, 39.166666666666664 ], [ -75.833333333333329, 39.166666666666664 ], [ -75.833333333333329, 37.0 ], [ -70.916666666666657, 37.0 ] ] ] } },
{ "type": "Feature", "properties": { "district_id": "D-083", "population_density": 166.9, "current_business_count": 3 }, "geometry": { "type": "Polygon", "coordinates": [ [ [ -66.0, 37.0 ], [ -66.0, 39.166666666666664 ], [ -70.916666666666657, 39.166666666666664 ], [ -70.916666666666657, 37.0 ], [ -66.0, 37.0 ] ] ] } },
{ "type": "Feature", "properties": { "district_id": "D-084", "population_density": 2394.4, "current_business_count": 41 }, "geometry": { "type": "Polygon", "coordinates": [ [ [ -120.083333333333329, 39.166666666666664 ], [ -120.083333333333329, 41.333333333333329 ], [ -125.0, 41.333333333333329 ], [ -125.0, 39.166666666666664 ], [ -120.083333333333329, 39.166666666666664 ] ] ] } },
{ "type": "Feature", "properties": { "district_id": "D-085", "population_density": 965.9, "current_business_count": 29 }, "geometry": { "type": "Polygon", "coordinates": [ [ [ -115.166666666666671, 39.166666666666664 ], [ -115.166666666666671, 41.333333333333329 ], [ -120.083333333333329, 41.333333333333329 ], [ -120.083333333333329, 39.166666666666664 ], [ -115.166666666666671, 39.166666666666664 ] ] ] } },
{ "type": "Feature", "properties": { "district_id": "D-086", "population_density": 50.0, "current_business_count": 1 }, "geometry": { "type": "Polygon", "coordinates": [ [ [ -110.25, 39.166666666666664 ], [ -110.25, 41.333333333333329 ], [ -115.166666666666671, 41.333333333333329 ], [ -115.166666666666671, 39.166666666666664 ], [ -110.25, 39.166666666666664 ] ] ] } },
{ "type": "Feature", "properties": { "district_id": "D-087", "population_density": 524.6, "current_business_count": 12 }, "geometry": { "type": "Polygon", "coordinates": [ [ [ -105.333333333333329, 39.166666666666664 ], [ -105.333333333333329, 41.333333333333329 ], [ -110.25, 41.333333333333329 ], [ -110.25, 39.166666666666664 ], [ -105.333333333333329, 39.166666666666664 ] ] ] } },
{ "type": "Feature", "properties": { "district_id": "D-088", "population_density": 331.9, "current_business_count": 9 }, "geometry": { "type": "Polygon", "coordinates": [ [ [ -100.416666666666657, 39.166666666666664 ], [ -100.416666666666657, 41.333333333333329 ], [ -105.333333333333329, 41.333333333333329 ], [ -105.333333333333329, 39.166666666666664 ], [ -100.416666666666657, 39.166666666666664 ] ] ] } },
{ "type": "Feature", "properties": { "district_id": "D-089", "population_density": 139.7, "current_business_count": 4 }, "geometry": { "type": "Polygon", "coordinates": [ [ [ -95.5, 39.166666666666664 ], [ -95.5, 41.333333333333329 ], [ -100.416666666666657, 41.333333333333329 ], [ -100.416666666666657, 39.166666666666664 ], [ -95.5, 39.166666666666664 ] ] ] } },
{ "type": "Feature", "properties": { "district_id": "D-090", "population_density": 240.2, "current_business_count": 5 }, "geometry": { "type": "Polygon", "coordinates": [ [ [ -90.583333333333329, 39.166666666666664 ], [ -90.583333333333329, 41.333333333333329 ], [ -95.5, 41.333333333333329 ], [ -95.5, 39.166666666666664 ], [ -90.583333333333329, 39.166666666666664 ] ] ] } },
{ "type": "Feature", "properties": { "district_id": "D-091", "population_density": 4026.7, "current_business_count": 129 }, "geometry": { "type": "Polygon", "coordinates": [ [ [ -85.666666666666657, 39.166666666666664 ], [ -85.666666666666657, 41.333333333333329 ], [ -90.583333333333329, 41.333333333333329 ], [ -90.583333333333329, 39.166666666666664 ], [ -85.666666666666657, 39.166666666666664 ] ] ] } },
{ "type": "Feature", "properties": { "district_id": "D-092", "population_density": 624.9, "current_business_count": 17 }, "geometry": { "type": "Polygon", "coordinates": [ [ [ -80.75, 39.166666666666664 ], [ -80.75, 41.333333333333329 ], [ -85.666666666666657, 41.333333333333329 ], [ -85.666666666666657, 39.166666666666664 ], [ -80.75, 39.166666666666664 ] ] ] } },
{ "type": "Feature", "properties": { "district_id": "D-093", "population_density": 1140.7, "current_business_count": 18 }, "geometry": { "type": "Polygon", "coordinates": [ [ [ -75.833333333333329, 39.166666666666664 ], [ -75.833333333333329, 41.333333333333329 ], [ -80.75, 41.333333333333329 ], [ -80.75, 39.166666666666664 ], [ -75.833333333333329, 39.166666666666664 ] ] ] } },
{ "type": "Feature", "properties": { "district_id": "D-094", "population_density": 7897.9, "current_business_count": 213 }, "geometry": { "type": "Polygon", "coordinates": [ [ [ -70.916666666666657, 39.166666666666664 ], [ -70.916666666666657, 41.333333333333329 ], [ -75.833333333333329, 41.333333333333329 ], [ -75.833333333333329, 39.166666666666664 ], [ -70.916666666666657, 39.166666666666664 ] ] ] } },
{ "type": "Feature", "properties": { "district_id": "D-095", "population_density": 1313.7, "current_business_count": 23 }, "geometry": { "type": "Polygon", "coordinates": [ [ [ -66.0, 39.166666666666664 ], [ -66.0, 41.333333333333329 ], [ -70.916666666666657, 41.333333333333329 ], [ -70.916666666666657, 39.166666666666664 ], [ -66.0, 39.166666666666664 ] ] ] } },
{ "type": "Feature", "properties": { "district_id": "D-096", "population_density": 1498.7, "current_business_count": 41 }, "geometry": { "type": "Polygon", "coordinates": [ [ [ -120.083333333333329, 41.333333333333329 ], [ -120.083333333333329, 43.5 ], [ -125.0, 43.5 ], [ -125.0, 41.333333333333329 ], [ -120.083333333333329, 41.333333333333329 ] ] ] } },
{ "type": "Feature", "properties": { "district_id": "D-097", "population_density": 128.0, "current_business_count": 3 }, "geometry": { "type": "Polygon", "coordinates": [ [ [ -115.166666666666671, 41.333333333333329 ], [ -115.166666666666671, 43.5 ], [ -120.083333333333329, 43.5 ], [ -120.083333333333329, 41.333333333333329 ], [ -115.166666666666671, 41.333333333333329 ] ] ] } },
{ "type": "Feature", "properties": { "district_id": "D-098", "population_density": 50.0, "current_business_count": 1 }, "geometry": { "type": "Polygon", "coordinates": [ [ [ -110.25, 41.333333333333329 ], [ -110.25, 43.5 ], [ -115.166666666666671, 43.5 ], [ -115.166666666666671, 41.333333333333329 ], [ -110.25, 41.333333333333329 ] ] ] } },
{ "type": "Feature", "properties": { "district_id": "D-099", "population_density": 412.8, "current_business_count": 14 }, "geometry": { "type": "Polygon", "coordinates": [ [ [ -105.333333333333329, 41.333333333333329 ], [ -105.333333333333329, 43.5 ], [ -110.25, 43.5 ], [ -110.25, 41.333333333333329 ], [ -105.333333333333329, 41.333333333333329 ] ] ] } },
{ "type": "Feature", "properties": { "district_id": "D-100", "population_density": 489.6, "current_business_count": 9 }, "geometry": { "type": "Polygon", "coordinates": [ [ [ -100.416666666666657, 41.333333333333329 ], [ -100.416666666666657, 43.5 ], [ -105.333333333333329, 43.5 ], [ -105.333333333333329, 41.333333333333329 ], [ -100.416666666666657, 41.333333333333329 ] ] ] } },
{ "type": "Feature", "properties": { "district_id": "D-101", "population_density": 50.0, "current_business_count": 2 }, "geometry": { "type": "Polygon", "coordinates": [ [ [ -95.5, 41.333333333333329 ], [ -95.5, 43.5 ], [ -100.416666666666657, 43.5 ], [ -100.416666666666657, 41.333333333333329 ], [ -95.5, 41.333333333333329 ] ] ] } },
{ "type": "Feature", "properties": { "district_id": "D-102", "population_density": 406.3, "current_business_count": 12 }, "geometry": { "type": "Polygon", "coordinates": [ [ [ -90.583333333333329, 41.333333333333329 ], [ -90.583333333333329, 43.5 ], [ -95.5, 43.5 ], [ -95.5, 41.333333333333329 ], [ -90.583333333333329, 41.333333333333329 ] ] ] } },
{ "type": "Feature", "properties": { "district_id": "D-103", "population_density": 6001.2, "current_business_count": 139 }, "geometry": { "type": "Polygon", "coordinates": [ [ [ -85.666666666666657, 41.333333333333329 ], [ -85.666666666666657, 43.5 ], [ -90.583333333333329, 43.5 ], [ -90.583333333333329, 41.333333333333329 ], [ -85.666666666666657, 41.333333333333329 ] ] ] } },
{ "type": "Feature", "properties": { "district_id": "D-104", "population_density": 1557.9, "current_business_count": 47 }, "geometry": { "type": "Polygon", "coordinates": [ [ [ -80.75, 41.333333333333329 ], [ -80.75, 43.5 ], [ -85.666666666666657, 43.5 ], [ -85.666666666666657, 41.333333333333329 ], [ -80.75, 41.333333333333329 ] ] ] } },
{ "type": "Feature", "properties": { "district_id": "D-105", "population_density": 720.5, "current_business_count": 13 }, "geometry": { "type": "Polygon", "coordinates": [ [ [ -75.833333333333329, 41.333333333333329 ], [ -75.833333333333329, 43.5 ], [ -80.75, 43.5 ], [ -80.75, 41.333333333333329 ], [ -75.833333333333329, 41.333333333333329 ] ] ] } },
{ "type": "Feature", "properties": { "district_id": "D-106", "population_density": 5116.2, "current_business_count": 133 }, "geometry": { "type": "Polygon", "coordinates": [ [ [ -70.916666666666657, 41.333333333333329 ], [ -70.916666666666657, 43.5 ], [ -75.833333333333329, 43.5 ], [ -75.833333333333329, 41.333333333333329 ], [ -70.916666666666657, 41.333333333333329 ] ] ] } },
{ "type": "Feature", "properties": { "district_id": "D-107", "population_density": 519.0, "current_business_count": 12 }, "geometry": { "type": "Polygon", "coordinates": [ [ [ -66.0, 41.333333333333329 ], [ -66.0, 43.5 ], [ -70.916666666666657, 43.5 ], [ -70.916666666666657, 41.333333333333329 ], [ -66.0, 41.333333333333329 ] ] ] } },
{ "type": "Feature", "properties": { "district_id": "D-108", "population_density": 2073.8, "current_business_count": 58 }, "geometry": { "type": "Polygon", "coordinates": [ [ [ -120.083333333333329, 43.5 ], [ -120.083333333333329, 45.666666666666664 ], [ -125.0, 45.666666666666664 ], [ -125.0, 43.5 ], [ -120.083333333333329, 43.5 ] ] ] } },
{ "type": "Feature", "properties": { "district_id": "D-109", "population_density": 243.8, "current_business_count": 7 }, "geometry": { "type": "Polygon", "coordinates": [ [ [ -115.166666666666671, 43.5 ], [ -115.166666666666671, 45.666666666666664 ], [ -120.083333333333329, 45.666666666666664 ], [ -120.083333333333329, 43.5 ], [ -115.166666666666671, 43.5 ] ] ] } },
{ "type": "Feature", "properties": { "district_id": "D-110", "population_density": 50.0, "current_business_count": 1 }, "geometry": { "type": "Polygon", "coordinates": [ [ [ -110.25, 43.5 ], [ -110.25, 45.666666666666664 ], [ -115.166666666666671, 45.666666666666664 ], [ -115.166666666666671, 43.5 ], [ -110.25, 43.5 ] ] ] } },
{ "type": "Feature", "properties": { "district_id": "D-111", "population_density": 210.2, "current_business_count": 5 }, "geometry": { "type": "Polygon", "coordinates": [ [ [ -105.333333333333329, 43.5 ], [ -105.333333333333329, 45.666666666666664 ], [ -110.25, 45.666666666666664 ], [ -110.25, 43.5 ], [ -105.333333333333329, 43.5 ] ] ] } },
{ "type": "Feature", "properties": { "district_id": "D-112", "population_density": 50.0, "current_business_count": 1 }, "geometry": { "type": "Polygon", "coordinates": [ [ [ -100.416666666666657, 43.5 ], [ -100.416666666666657, 45.666666666666664 ], [ -105.333333333333329, 45.666666666666664 ], [ -105.333333333333329, 43.5 ], [ -100.416666666666657, 43.5 ] ] ] } },
{ "type": "Feature", "properties": { "district_id": "D-113", "population_density": 845.6, "current_business_count": 26 }, "geometry": { "type": "Polygon", "coordinates": [ [ [ -95.5, 43.5 ], [ -95.5, 45.666666666666664 ], [ -100.416666666666657, 45.666666666666664 ], [ -100.416666666666657, 43.5 ], [ -95.5, 43.5 ] ] ] } },
{ "type": "Feature", "properties": { "district_id": "D-114", "population_density": 264.5, "current_business_count": 5 }, "geometry": { "type": "Polygon", "coordinates": [ [ [ -90.583333333333329, 43.5 ], [ -90.583333333333329, 45.666666666666664 ], [ -95.5, 45.666666666666664 ], [ -95.5, 43.5 ], [ -90.583333333333329, 43.5 ] ] ] } },
{ "type": "Feature", "properties": { "district_id": "D-115", "population_density": 4225.1, "current_business_count": 122 }, "geometry": { "type": "Polygon", "coordinates": [ [ [ -85.666666666666657, 43.5 ], [ -85.666666666666657, 45.666666666666664 ], [ -90.583333333333329, 45.666666666666664 ], [ -90.583333333333329, 43.5 ], [ -85.666666666666657, 43.5 ] ] ] } },
{ "type": "Feature", "properties": { "district_id": "D-116", "population_density": 1723.6, "current_business_count": 34 }, "geometry": { "type": "Polygon", "coordinates": [ [ [ -80.75, 43.5 ], [ -80.75, 45.666666666666664 ], [ -85.666666666666657, 45.666666666666664 ], [ -85.666666666666657, 43.5 ], [ -80.75, 43.5 ] ] ] } },
{ "type": "Feature", "properties": { "district_id": "D-117", "population_density": 50.0, "current_business_count": 1 }, "geometry": { "type": "Polygon", "coordinates": [ [ [ -75.833333333333329, 43.5 ], [ -75.833333333333329, 45.666666666666664 ], [ -80.75, 45.666666666666664 ], [ -80.75, 43.5 ], [ -75.833333333333329, 43.5 ] ] ] } },
{ "type": "Feature", "properties": { "district_id": "D-118", "population_density": 955.5, "current_business_count": 24 }, "geometry": { "type": "Polygon", "coordinates": [ [ [ -70.916666666666657, 43.5 ], [ -70.916666666666657, 45.666666666666664 ], [ -75.833333333333329, 45.666666666666664 ], [ -75.833333333333329, 43.5 ], [ -70.916666666666657, 43.5 ] ] ] } },
{ "type": "Feature", "properties": { "district_id": "D-119", "population_density": 713.0, "current_business_count": 11 }, "geometry": { "type": "Polygon", "coordinates": [ [ [ -66.0, 43.5 ], [ -66.0, 45.666666666666664 ], [ -70.916666666666657, 45.666666666666664 ], [ -70.916666666666657, 43.5 ], [ -66.0, 43.5 ] ] ] } },
{ "type": "Feature", "properties": { "district_id": "D-120", "population_density": 2549.6, "current_business_count": 53 }, "geometry": { "type": "Polygon", "coordinates": [ [ [ -120.083333333333329, 45.666666666666664 ], [ -120.083333333333329, 47.833333333333329 ], [ -125.0, 47.833333333333329 ], [ -125.0, 45.666666666666664 ], [ -120.083333333333329, 45.666666666666664 ] ] ] } },
{ "type": "Feature", "properties": { "district_id": "D-121", "population_density": 1114.7, "current_business_count": 33 }, "geometry": { "type": "Polygon", "coordinates": [ [ [ -115.166666666666671, 45.666666666666664 ], [ -115.166666666666671, 47.833333333333329 ], [ -120.083333333333329, 47.833333333333329 ], [ -120.083333333333329, 45.666666666666664 ], [ -115.166666666666671, 45.666666666666664 ] ] ] } },
{ "type": "Feature", "properties": { "district_id": "D-122", "population_density": 122.1, "current_business_count": 4 }, "geometry": { "type": "Polygon", "coordinates": [ [ [ -110.25, 45.666666666666664 ], [ -110.25, 47.833333333333329 ], [ -115.166666666666671, 47.833333333333329 ], [ -115.166666666666671, 45.666666666666664 ], [ -110.25, 45.666666666666664 ] ] ] } },
{ "type": "Feature", "properties": { "district_id": "D-123", "population_density": 50.0, "current_business_count": 1 }, "geometry": { "type": "Polygon", "coordinates": [ [ [ -105.333333333333329, 45.666666666666664 ], [ -105.333333333333329, 47.833333333333329 ], [ -110.25, 47.833333333333329 ], [ -110.25, 45.666666666666664 ], [ -105.333333333333329, 45.666666666666664 ] ] ] } },
{ "type": "Feature", "properties": { "district_id": "D-124", "population_density": 50.0, "current_business_count": 1 }, "geometry": { "type": "Polygon", "coordinates": [ [ [ -100.416666666666657, 45.666666666666664 ], [ -100.416666666666657, 47.833333333333329 ], [ -105.333333333333329, 47.833333333333329 ], [ -105.333333333333329, 45.666666666666664 ], [ -100.416666666666657, 45.666666666666664 ] ] ] } },
{ "type": "Feature", "properties": { "district_id": "D-125", "population_density": 192.2, "current_business_count": 3 }, "geometry": { "type": "Polygon", "coordinates": [ [ [ -95.5, 45.666666666666664 ], [ -95.5, 47.833333333333329 ], [ -100.416666666666657, 47.833333333333329 ], [ -100.416666666666657, 45.666666666666664 ], [ -95.5, 45.666666666666664 ] ] ] } },
{ "type": "Feature", "properties": { "district_id": "D-126", "population_density": 50.0, "current_business_count": 1 }, "geometry": { "type": "Polygon", "coordinates": [ [ [ -90.583333333333329, 45.666666666666664 ], [ -90.583333333333329, 47.833333333333329 ], [ -95.5, 47.833333333333329 ], [ -95.5, 45.666666666666664 ], [ -90.583333333333329, 45.666666666666664 ] ] ] } },
{ "type": "Feature", "properties": { "district_id": "D-127", "population_density": 451.5, "current_business_count": 12 }, "geometry": { "type": "Polygon", "coordinates": [ [ [ -85.666666666666657, 45.666666666666664 ], [ -85.666666666666657, 47.833333333333329 ], [ -90.583333333333329, 47.833333333333329 ], [ -90.583333333333329, 45.666666666666664 ], [ -85.666666666666657, 45.666666666666664 ] ] ] } },
{ "type": "Feature", "properties": { "district_id": "D-128", "population_density": 1127.8, "current_business_count": 38 }, "geometry": { "type": "Polygon", "coordinates": [ [ [ -80.75, 45.666666666666664 ], [ -80.75, 47.833333333333329 ], [ -85.666666666666657, 47.833333333333329 ], [ -85.666666666666657, 45.666666666666664 ], [ -80.75, 45.666666666666664 ] ] ] } },
{ "type": "Feature", "properties": { "district_id": "D-129", "population_density": 166.6, "current_business_count": 3 }, "geometry": { "type": "Polygon", "coordinates": [ [ [ -75.833333333333329, 45.666666666666664 ], [ -75.833333333333329, 47.833333333333329 ], [ -80.75, 47.833333333333329 ], [ -80.75, 45.666666666666664 ], [ -75.833333333333329, 45.666666666666664 ] ] ] } },
{ "type": "Feature", "properties": { "district_id": "D-130", "population_density": 520.8, "current_business_count": 10 }, "geometry": { "type": "Polygon", "coordinates": [ [ [ -70.916666666666657, 45.666666666666664 ], [ -70.916666666666657, 47.833333333333329 ], [ -75.833333333333329, 47.833333333333329 ], [ -75.833333333333329, 45.666666666666664 ], [ -70.916666666666657, 45.666666666666664 ] ] ] } },
{ "type": "Feature", "properties": { "district_id": "D-131", "population_density": 50.0, "current_business_count": 1 }, "geometry": { "type": "Polygon", "coordinates": [ [ [ -66.0, 45.666666666666664 ], [ -66.0, 47.833333333333329 ], [ -70.916666666666657, 47.833333333333329 ], [ -70.916666666666657, 45.666666666666664 ], [ -66.0, 45.666666666666664 ] ] ] } },
{ "type": "Feature", "properties": { "district_id": "D-132", "population_density": 2085.6, "current_business_count": 40 }, "geometry": { "type": "Polygon", "coordinates": [ [ [ -120.083333333333329, 47.833333333333329 ], [ -120.083333333333329, 50.0 ], [ -125.0, 50.0 ], [ -125.0, 47.833333333333329 ], [ -120.083333333333329, 47.833333333333329 ] ] ] } },
{ "type": "Feature", "properties": { "district_id": "D-133", "population_density": 787.7, "current_business_count": 14 }, "geometry": { "type": "Polygon", "coordinates": [ [ [ -115.166666666666671, 47.833333333333329 ], [ -115.166666666666671, 50.0 ], [ -120.083333333333329, 50.0 ], [ -120.083333333333329, 47.833333333333329 ], [ -115.166666666666671, 47.833333333333329 ] ] ] } },
{ "type": "Feature", "properties": { "district_id": "D-134", "population_density": 1067.8, "current_business_count": 17 }, "geometry": { "type": "Polygon", "coordinates": [ [ [ -110.25, 47.833333333333329 ], [ -110.25, 50.0 ], [ -115.166666666666671, 50.0 ], [ -115.166666666666671, 47.833333333333329 ], [ -110.25, 47.833333333333329 ] ] ] } },
{ "type": "Feature", "properties": { "district_id": "D-135", "population_density": 68.4, "current_business_count": 1 }, "geometry": { "type": "Polygon", "coordinates": [ [ [ -105.333333333333329, 47.833333333333329 ], [ -105.333333333333329, 50.0 ], [ -110.25, 50.0 ], [ -110.25, 47.833333333333329 ], [ -105.333333333333329, 47.833333333333329 ] ] ] } },
{ "type": "Feature", "properties": { "district_id": "D-136", "population_density": 320.8, "current_business_count": 9 }, "geometry": { "type": "Polygon", "coordinates": [ [ [ -100.416666666666657, 47.833333333333329 ], [ -100.416666666666657, 50.0 ], [ -105.333333333333329, 50.0 ], [ -105.333333333333329, 47.833333333333329 ], [ -100.416666666666657, 47.833333333333329 ] ] ] } },
{ "type": "Feature", "properties": { "district_id": "D-137", "population_density": 487.9, "current_business_count": 13 }, "geometry": { "type": "Polygon", "coordinates": [ [ [ -95.5, 47.833333333333329 ], [ -95.5, 50.0 ], [ -100.416666666666657, 50.0 ], [ -100.416666666666657, 47.833333333333329 ], [ -95.5, 47.833333333333329 ] ] ] } },
{ "type": "Feature", "properties": { "district_id": "D-138", "population_density": 618.5, "current_business_count": 16 }, "geometry": { "type": "Polygon", "coordinates": [ [ [ -90.583333333333329, 47.833333333333329 ], [ -90.583333333333329, 50.0 ], [ -95.5, 50.0 ], [ -95.5, 47.833333333333329 ], [ -90.583333333333329, 47.833333333333329 ] ] ] } },
{ "type": "Feature", "properties": { "district_id": "D-139", "population_density": 50.0, "current_business_count": 1 }, "geometry": { "type": "Polygon", "coordinates": [ [ [ -85.666666666666657, 47.833333333333329 ], [ -85.666666666666657, 50.0 ], [ -90.583333333333329, 50.0 ], [ -90.583333333333329, 47.833333333333329 ], [ -85.666666666666657, 47.833333333333329 ] ] ] } },
{ "type": "Feature", "properties": { "district_id": "D-140", "population_density": 476.4, "current_business_count": 9 }, "geometry": { "type": "Polygon", "coordinates": [ [ [ -80.75, 47.833333333333329 ], [ -80.75, 50.0 ], [ -85.666666666666657, 50.0 ], [ -85.666666666666657, 47.833333333333329 ], [ -80.75, 47.833333333333329 ] ] ] } },
{ "type": "Feature", "properties": { "district_id": "D-141", "population_density": 50.0, "current_business_count": 1 }, "geometry": { "type": "Polygon", "coordinates": [ [ [ -75.833333333333329, 47.833333333333329 ], [ -75.833333333333329, 50.0 ], [ -80.75, 50.0 ], [ -80.75, 47.833333333333329 ], [ -75.833333333333329, 47.833333333333329 ] ] ] } },
{ "type": "Feature", "properties": { "district_id": "D-142", "population_density": 50.0, "current_business_count": 1 }, "geometry": { "type": "Polygon", "coordinates": [ [ [ -70.916666666666657, 47.833333333333329 ], [ -70.916666666666657, 50.0 ], [ -75.833333333333329, 50.0 ], [ -75.833333333333329, 47.833333333333329 ], [ -70.916666666666657, 47.833333333333329 ] ] ] } },
{ "type": "Feature", "properties": { "district_id": "D-143", "population_density": 180.2, "current_business_count": 3 }, "geometry": { "type": "Polygon", "coordinates": [ [ [ -66.0, 47.833333333333329 ], [ -66.0, 50.0 ], [ -70.916666666666657, 50.0 ], [ -70.916666666666657, 47.833333333333329 ], [ -66.0, 47.833333333333329 ] ] ] } }
]
}
